{"type":"FeatureCollection","features":[{"type":"Feature","geometry":{"type":"LineString","coordinates":[[[114.39493760000005,30.533158400000048],[114.39591710000002,30.533156500000075],[114.39655820000007,30.53311910000008],[114.3971772000001,30.533040500000027],[114.39781990000006,30.532877000000042],[114.39875760000007,30.53246020000006],[114.39952520000008,30.531927000000053],[114.40048330000002,30.53102830000006],[114.4010015,30.53058980000003],[114.40206280000007,30.52971350000007],[114.40373900000009,30.528085300000043]]]},"properties":{"FID":0,"OBJECTID":6,"highway":"secondary","building":" ","natural":" ","waterway":" ","amenity":" ","landuse":" ","place":" ","railway":" ","boundary":" ","power":" ","leisure":" ","man_made":" ","shop":" ","tourism":" ","route":" ","historic":" ","aeroway":" ","aerialway":" ","barrier":" ","military":" ","geological":" ","OSMID":"169552935","osmuser":"meacon","osmuid":751192,"osmvisible":"true","osmversion":2,"osmchanges":12809385,"osmtimesta":1345507200000,"osmSupport":"no","SHAPE_Leng":0.0105752022961,"length":1235.50268644}},{"type":"Feature","geometry":{"type":"LineString","coordinates":[[[114.38487450000002,30.533394500000043],[114.38759660000005,30.533326400000078],[114.38904430000002,30.533286200000077],[114.39035290000004,30.533255800000063],[114.39040950000003,30.533254500000055],[114.39291630000002,30.53318470000005],[114.39493760000005,30.533158400000048]]]},"properties":{"FID":1,"OBJECTID":7,"highway":"secondary","building":" ","natural":" ","waterway":" ","amenity":" ","landuse":" ","place":" ","railway":" ","boundary":" ","power":" ","leisure":" ","man_made":" ","shop":" ","tourism":" ","route":" ","historic":" ","aeroway":" ","aerialway":" ","barrier":" ","military":" ","geological":" ","OSMID":"169552933","osmuser":"lgt945","osmuid":2088668,"osmvisible":"true","osmversion":2,"osmchanges":22499767,"osmtimesta":1400803200000,"osmSupport":"no","SHAPE_Leng":0.0100660204034,"length":1120.65734072}},{"type":"Feature","geometry":{"type":"LineString","coordinates":[[[114.39532170000007,30.52094560000006],[114.39572320000002,30.52092360000006]]]},"properties":{"FID":2,"OBJECTID":8,"highway":" ","building":" ","natural":" ","waterway":" ","amenity":" ","landuse":" ","place":" ","railway":" ","boundary":" ","power":" ","leisure":" ","man_made":" ","shop":" ","tourism":" ","route":" ","historic":" ","aeroway":" ","aerialway":" ","barrier":" ","military":" ","geological":" ","OSMID":"421056769","osmuser":"vastmanor","osmuid":3584190,"osmvisible":"true","osmversion":1,"osmchanges":39578881,"osmtimesta":1464220800000,"osmSupport":"yes","SHAPE_Leng":0.000402102287934,"length":44.7851006895}},{"type":"Feature","geometry":{"type":"LineString","coordinates":[[[114.39947310000002,30.526496300000076],[114.3993865000001,30.52650730000005],[114.39802210000005,30.525837000000024],[114.39742480000007,30.525570300000027],[114.39715640000009,30.525433500000076],[114.3969317000001,30.52526590000008],[114.39681430000007,30.525162100000045],[114.39672350000001,30.525081800000066],[114.39657000000011,30.524893000000077],[114.39640290000011,30.524612200000036],[114.39634980000005,30.524465400000054],[114.39632350000011,30.524392700000078],[114.39626050000004,30.524170800000036],[114.3962193000001,30.52388490000004],[114.3961207000001,30.52320080000004],[114.39607970000009,30.522870500000067],[114.3959317,30.52201130000003],[114.3957382000001,30.521001900000044],[114.39573010000004,30.52095950000006],[114.39572320000002,30.52092360000006],[114.39569480000011,30.52077550000007],[114.39539470000011,30.519209800000056],[114.39479215100005,30.51621639700005]]]},"properties":{"FID":3,"OBJECTID":9,"highway":"secondary","building":" ","natural":" ","waterway":" ","amenity":" ","landuse":" ","place":" ","railway":" ","boundary":" ","power":" ","leisure":" ","man_made":" ","shop":" ","tourism":" ","route":" ","historic":" ","aeroway":" ","aerialway":" ","barrier":" ","military":" ","geological":" ","OSMID":"231793629","osmuser":"vastmanor","osmuid":3584190,"osmvisible":"true","osmversion":9,"osmchanges":39578881,"osmtimesta":1464220800000,"osmSupport":"no","SHAPE_Leng":0.0122459212077,"length":2006.3938382}},{"type":"Feature","geometry":{"type":"LineString","coordinates":[[[114.38473350000004,30.520355400000028],[114.38516600000003,30.520974600000045],[114.38632930000006,30.522355400000038],[114.38659370000005,30.522297300000048],[114.3869261000001,30.522716400000036],[114.38705960000004,30.523002400000053],[114.38721510000005,30.523297900000046],[114.3877993000001,30.523229300000025],[114.38780320000001,30.524203000000057],[114.38784810000004,30.52442240000005],[114.38819010000009,30.524450100000024],[114.38831180000011,30.524564300000065],[114.38841140000011,30.524649900000043],[114.38861020000002,30.524716100000035],[114.38876470000002,30.52476340000004],[114.38904060000004,30.52481030000007],[114.38942640000005,30.524771000000044],[114.38953700000002,30.52484700000008],[114.38952640000002,30.52495200000004],[114.38998930000002,30.524893400000053],[114.39014410000004,30.524997900000074],[114.39024400000005,30.525179000000037],[114.3904755000001,30.525159200000076],[114.39070720000007,30.52518720000006],[114.39080700000011,30.525330100000076],[114.39084150000008,30.52567360000006],[114.39117270000008,30.52576810000005],[114.3915919000001,30.525814600000047],[114.39181320000012,30.525995300000034],[114.39195710000001,30.52613800000006],[114.39207920000001,30.526338200000055],[114.39220180000007,30.52666830000004],[114.39271600000006,30.52665440000004],[114.3929250000001,30.52665120000006],[114.39284350000003,30.52627780000006],[114.39311250000003,30.52606460000004],[114.39330160000009,30.525933500000065],[114.39358430000004,30.52598770000003],[114.39395180000008,30.52583610000005],[114.39427090000004,30.525653700000078],[114.3946787000001,30.52561430000003],[114.39506460000007,30.525594100000035],[114.39520830000004,30.52568910000008],[114.39530820000004,30.525851100000068],[114.39548510000009,30.52595560000003],[114.3957170000001,30.526050300000065],[114.39623530000006,30.52603920000007],[114.39666480000005,30.52590420000007],[114.39699480000002,30.525712300000066],[114.39734670000007,30.52546300000006],[114.39809820000005,30.525861700000064],[114.39911460000008,30.526345400000025],[114.3993987,30.525685900000042],[114.39941920000001,30.52531350000004],[114.39942900000005,30.525027100000045],[114.3995268000001,30.524654500000054],[114.39980250000008,30.524663200000077],[114.4002422000001,30.52432770000007],[114.40069370000003,30.524183100000073],[114.40110200000004,30.524258200000077],[114.40106700000001,30.523781000000042],[114.40138660000002,30.523751400000037],[114.40164030000005,30.523760200000027],[114.4017176000001,30.523788600000046],[114.40205970000011,30.523863900000038],[114.40219280000008,30.524035300000037],[114.40234800000007,30.524244800000076],[114.40253640000003,30.524463800000035],[114.40275730000008,30.524568100000067],[114.40307660000008,30.524433500000043],[114.40298740000003,30.52420470000004],[114.40291980000006,30.523861200000056],[114.40290750000008,30.523555800000054],[114.40307210000003,30.52335480000005],[114.40297090000001,30.522887300000036],[114.40342250000003,30.522742700000038],[114.40363700000012,30.52268410000005]]]},"properties":{"FID":4,"OBJECTID":12,"highway":" ","building":" ","natural":" ","waterway":" ","amenity":" ","landuse":" ","place":" ","railway":" ","boundary":"administrative","power":" ","leisure":" ","man_made":" ","shop":" ","tourism":" ","route":" ","historic":" ","aeroway":" ","aerialway":" ","barrier":" ","military":" ","geological":" ","OSMID":"234857991","osmuser":"CUGiser","osmuid":2303360,"osmvisible":"true","osmversion":2,"osmchanges":25250369,"osmtimesta":1409875200000,"osmSupport":"no","SHAPE_Leng":0.0281731695059,"length":4005.59420633}},{"type":"Feature","geometry":{"type":"LineString","coordinates":[[[114.40373900000009,30.528085300000043],[114.40253200000006,30.52772360000006],[114.40119990000005,30.527446600000076],[114.3998140000001,30.52666510000006],[114.39947310000002,30.526496300000076]]]},"properties":{"FID":5,"OBJECTID":13,"highway":"secondary","building":" ","natural":" ","waterway":" ","amenity":" ","landuse":" ","place":" ","railway":" ","boundary":" ","power":" ","leisure":" ","man_made":" ","shop":" ","tourism":" ","route":" ","historic":" ","aeroway":" ","aerialway":" ","barrier":" ","military":" ","geological":" ","OSMID":"235797280","osmuser":"GeoSUN","osmuid":414582,"osmvisible":"true","osmversion":1,"osmchanges":17584605,"osmtimesta":1377820800000,"osmSupport":"no","SHAPE_Leng":0.00459208468898,"length":522.976932897}},{"type":"Feature","geometry":{"type":"LineString","coordinates":[[[114.39336490000005,30.521955500000047],[114.39459030000012,30.52196710000004],[114.39456910000001,30.521357400000056]]]},"properties":{"FID":6,"OBJECTID":14,"highway":" ","building":" ","natural":" ","waterway":" ","amenity":" ","landuse":" ","place":" ","railway":" ","boundary":" ","power":" ","leisure":" ","man_made":" ","shop":" ","tourism":" ","route":" ","historic":" ","aeroway":" ","aerialway":" ","barrier":" ","military":" ","geological":" ","OSMID":"333372260","osmuser":"比目鱼","osmuid":2765880,"osmvisible":"true","osmversion":1,"osmchanges":29555048,"osmtimesta":1426636800000,"osmSupport":"yes","SHAPE_Leng":0.00183552336672,"length":215.243148296}},{"type":"Feature","geometry":{"type":"LineString","coordinates":[[[114.39459030000012,30.52196710000004],[114.39459030000012,30.522369600000047],[114.3933743,30.522381600000074]]]},"properties":{"FID":7,"OBJECTID":15,"highway":" ","building":" ","natural":" ","waterway":" ","amenity":" ","landuse":" ","place":" ","railway":" ","boundary":" ","power":" ","leisure":" ","man_made":" ","shop":" ","tourism":" ","route":" ","historic":" ","aeroway":" ","aerialway":" ","barrier":" ","military":" ","geological":" ","OSMID":"333372261","osmuser":"比目鱼","osmuid":2765880,"osmvisible":"true","osmversion":1,"osmchanges":29555048,"osmtimesta":1426636800000,"osmSupport":"yes","SHAPE_Leng":0.00161855920921,"length":187.386841181}},{"type":"Feature","geometry":{"type":"LineString","coordinates":[[[114.39459030000012,30.52196710000004],[114.39556530000004,30.521952200000044]]]},"properties":{"FID":8,"OBJECTID":16,"highway":" ","building":" ","natural":" ","waterway":" ","amenity":" ","landuse":" ","place":" ","railway":" ","boundary":" ","power":" ","leisure":" ","man_made":" ","shop":" ","tourism":" ","route":" ","historic":" ","aeroway":" ","aerialway":" ","barrier":" ","military":" ","geological":" ","OSMID":"333372262","osmuser":"比目鱼","osmuid":2765880,"osmvisible":"true","osmversion":1,"osmchanges":29555048,"osmtimesta":1426636800000,"osmSupport":"yes","SHAPE_Leng":0.000975113844561,"length":108.553581253}},{"type":"Feature","geometry":{"type":"LineString","coordinates":[[[114.39418690000002,30.521358000000077],[114.39419380000004,30.520500000000027]]]},"properties":{"FID":9,"OBJECTID":17,"highway":" ","building":" ","natural":" ","waterway":" ","amenity":" ","landuse":" ","place":" ","railway":" ","boundary":" ","power":" ","leisure":" ","man_made":" ","shop":" ","tourism":" ","route":" ","historic":" ","aeroway":" ","aerialway":" ","barrier":" ","military":" ","geological":" ","OSMID":"333372263","osmuser":"比目鱼","osmuid":2765880,"osmvisible":"true","osmversion":1,"osmchanges":29555048,"osmtimesta":1426636800000,"osmSupport":"yes","SHAPE_Leng":0.000858027744357,"length":110.877140312}},{"type":"Feature","geometry":{"type":"LineString","coordinates":[[[114.3933518,30.52135930000003],[114.39418690000002,30.521358000000077],[114.39456910000001,30.521357400000056],[114.39533130000007,30.52135620000007]]]},"properties":{"FID":10,"OBJECTID":18,"highway":"residential","building":" ","natural":" ","waterway":" ","amenity":" ","landuse":" ","place":" ","railway":" ","boundary":" ","power":" ","leisure":" ","man_made":" ","shop":" ","tourism":" ","route":" ","historic":" ","aeroway":" ","aerialway":" ","barrier":" ","military":" ","geological":" ","OSMID":"282489701","osmuser":"比目鱼","osmuid":2765880,"osmvisible":"true","osmversion":3,"osmchanges":29555048,"osmtimesta":1426636800000,"osmSupport":"no","SHAPE_Leng":0.00197950242751,"length":220.357296175}},{"type":"Feature","geometry":{"type":"LineString","coordinates":[[[114.39531090000003,30.520487200000048],[114.39419380000004,30.520500000000027],[114.3933525000001,30.520509600000025]]]},"properties":{"FID":11,"OBJECTID":19,"highway":"residential","building":" ","natural":" ","waterway":" ","amenity":" ","landuse":" ","place":" ","railway":" ","boundary":" ","power":" ","leisure":" ","man_made":" ","shop":" ","tourism":" ","route":" ","historic":" ","aeroway":" ","aerialway":" ","barrier":" ","military":" ","geological":" ","OSMID":"282489703","osmuser":"比目鱼","osmuid":2765880,"osmvisible":"true","osmversion":2,"osmchanges":29555048,"osmtimesta":1426636800000,"osmSupport":"no","SHAPE_Leng":0.00195852810084,"length":218.027306667}},{"type":"Feature","geometry":{"type":"LineString","coordinates":[[[114.39338590000011,30.522910500000023],[114.39607970000009,30.522870500000067]]]},"properties":{"FID":12,"OBJECTID":20,"highway":"residential","building":" ","natural":" ","waterway":" ","amenity":" ","landuse":" ","place":" ","railway":" ","boundary":" ","power":" ","leisure":" ","man_made":" ","shop":" ","tourism":" ","route":" ","historic":" ","aeroway":" ","aerialway":" ","barrier":" ","military":" ","geological":" ","OSMID":"282489699","osmuser":"Gao xioix","osmuid":1761629,"osmvisible":"true","osmversion":1,"osmchanges":22389051,"osmtimesta":1400284800000,"osmSupport":"no","SHAPE_Leng":0.00269409696185,"length":299.916992204}},{"type":"Feature","geometry":{"type":"LineString","coordinates":[[[114.39033140000004,30.52134680000006],[114.38888500000007,30.521419800000047]]]},"properties":{"FID":13,"OBJECTID":21,"highway":"residential","building":" ","natural":" ","waterway":" ","amenity":" ","landuse":" ","place":" ","railway":" ","boundary":" ","power":" ","leisure":" ","man_made":" ","shop":" ","tourism":" ","route":" ","historic":" ","aeroway":" ","aerialway":" ","barrier":" ","military":" ","geological":" ","OSMID":"282489706","osmuser":"Gao xioix","osmuid":1761629,"osmvisible":"true","osmversion":1,"osmchanges":22389051,"osmtimesta":1400284800000,"osmSupport":"no","SHAPE_Leng":0.0014482409882,"length":161.288617938}},{"type":"Feature","geometry":{"type":"LineString","coordinates":[[[114.39032210000005,30.52207690000006],[114.3891076000001,30.522281000000078]]]},"properties":{"FID":14,"OBJECTID":22,"highway":"residential","building":" ","natural":" ","waterway":" ","amenity":" ","landuse":" ","place":" ","railway":" ","boundary":" ","power":" ","leisure":" ","man_made":" ","shop":" ","tourism":" ","route":" ","historic":" ","aeroway":" ","aerialway":" ","barrier":" ","military":" ","geological":" ","OSMID":"282489709","osmuser":"Gao xioix","osmuid":1761629,"osmvisible":"true","osmversion":1,"osmchanges":22389051,"osmtimesta":1400284800000,"osmSupport":"no","SHAPE_Leng":0.0012315303731,"length":137.746186287}},{"type":"Feature","geometry":{"type":"LineString","coordinates":[[[114.3962193000001,30.52388490000004],[114.39340750000008,30.52389590000007],[114.39338810000004,30.523896000000036],[114.39209240000002,30.52390550000007],[114.39204990000007,30.52390580000008]]]},"properties":{"FID":15,"OBJECTID":23,"highway":"residential","building":" ","natural":" ","waterway":" ","amenity":" ","landuse":" ","place":" ","railway":" ","boundary":" ","power":" ","leisure":" ","man_made":" ","shop":" ","tourism":" ","route":" ","historic":" ","aeroway":" ","aerialway":" ","barrier":" ","military":" ","geological":" ","OSMID":"282489693","osmuser":"Gao xioix","osmuid":1761629,"osmvisible":"true","osmversion":2,"osmchanges":22389256,"osmtimesta":1400284800000,"osmSupport":"no","SHAPE_Leng":0.00416945765921,"length":464.144134813}},{"type":"Feature","geometry":{"type":"LineString","coordinates":[[[114.39345520000006,30.52592990000005],[114.39381430000003,30.529206900000077]]]},"properties":{"FID":16,"OBJECTID":24,"highway":"residential","building":" ","natural":" ","waterway":" ","amenity":" ","landuse":" ","place":" ","railway":" ","boundary":" ","power":" ","leisure":" ","man_made":" ","shop":" ","tourism":" ","route":" ","historic":" ","aeroway":" ","aerialway":" ","barrier":" ","military":" ","geological":" ","OSMID":"282489692","osmuser":"as_poison","osmuid":2360884,"osmvisible":"true","osmversion":4,"osmchanges":25677005,"osmtimesta":1411689600000,"osmSupport":"no","SHAPE_Leng":0.00329661672175,"length":425.37955376}},{"type":"Feature","geometry":{"type":"LineString","coordinates":[[[114.39533130000007,30.52135620000007],[114.39532170000007,30.52094560000006],[114.39531090000003,30.520487200000048]]]},"properties":{"FID":17,"OBJECTID":25,"highway":"residential","building":" ","natural":" ","waterway":" ","amenity":" ","landuse":" ","place":" ","railway":" ","boundary":" ","power":" ","leisure":" ","man_made":" ","shop":" ","tourism":" ","route":" ","historic":" ","aeroway":" ","aerialway":" ","barrier":" ","military":" ","geological":" ","OSMID":"282489702","osmuser":"CUGiser","osmuid":2303360,"osmvisible":"true","osmversion":2,"osmchanges":26191783,"osmtimesta":1413676800000,"osmSupport":"no","SHAPE_Leng":0.000869239418182,"length":112.318898934}},{"type":"Feature","geometry":{"type":"LineString","coordinates":[[[114.39214270000002,30.526270600000032],[114.39211060000002,30.524758200000065],[114.39210820000005,30.524648400000046],[114.39209240000002,30.52390550000007],[114.39205940000011,30.52135400000003]]]},"properties":{"FID":18,"OBJECTID":26,"highway":"residential","building":" ","natural":" ","waterway":" ","amenity":" ","landuse":" ","place":" ","railway":" ","boundary":" ","power":" ","leisure":" ","man_made":" ","shop":" ","tourism":" ","route":" ","historic":" ","aeroway":" ","aerialway":" ","barrier":" ","military":" ","geological":" ","OSMID":"282494420","osmuser":"Gao xioix","osmuid":1761629,"osmvisible":"true","osmversion":1,"osmchanges":22389256,"osmtimesta":1400284800000,"osmSupport":"no","SHAPE_Leng":0.00491734823514,"length":635.434969419}},{"type":"Feature","geometry":{"type":"LineString","coordinates":[[[114.39108320000003,30.52135050000004],[114.39109930000006,30.52464850000007]]]},"properties":{"FID":19,"OBJECTID":27,"highway":"residential","building":" ","natural":" ","waterway":" ","amenity":" ","landuse":" ","place":" ","railway":" ","boundary":" ","power":" ","leisure":" ","man_made":" ","shop":" ","tourism":" ","route":" ","historic":" ","aeroway":" ","aerialway":" ","barrier":" ","military":" ","geological":" ","OSMID":"282494421","osmuser":"Gao xioix","osmuid":1761629,"osmvisible":"true","osmversion":1,"osmchanges":22389256,"osmtimesta":1400284800000,"osmSupport":"no","SHAPE_Leng":0.00329803929785,"length":426.194706436}},{"type":"Feature","geometry":{"type":"LineString","coordinates":[[[114.39109930000006,30.52464850000007],[114.39210820000005,30.524648400000046]]]},"properties":{"FID":20,"OBJECTID":28,"highway":"residential","building":" ","natural":" ","waterway":" ","amenity":" ","landuse":" ","place":" ","railway":" ","boundary":" ","power":" ","leisure":" ","man_made":" ","shop":" ","tourism":" ","route":" ","historic":" ","aeroway":" ","aerialway":" ","barrier":" ","military":" ","geological":" ","OSMID":"282494422","osmuser":"Gao xioix","osmuid":1761629,"osmvisible":"true","osmversion":1,"osmchanges":22389256,"osmtimesta":1400284800000,"osmSupport":"no","SHAPE_Leng":0.00100890000494,"length":112.310235003}},{"type":"Feature","geometry":{"type":"LineString","coordinates":[[[114.39214270000002,30.526270600000032],[114.39221290000012,30.526326200000028],[114.39288890000012,30.526304800000048],[114.39345520000006,30.52592990000005]]]},"properties":{"FID":21,"OBJECTID":29,"highway":"residential","building":" ","natural":" ","waterway":" ","amenity":" ","landuse":" ","place":" ","railway":" ","boundary":" ","power":" ","leisure":" ","man_made":" ","shop":" ","tourism":" ","route":" ","historic":" ","aeroway":" ","aerialway":" ","barrier":" ","military":" ","geological":" ","OSMID":"282494424","osmuser":"Gao xioix","osmuid":1761629,"osmvisible":"true","osmversion":1,"osmchanges":22389256,"osmtimesta":1400284800000,"osmSupport":"no","SHAPE_Leng":0.00144504046539,"length":165.425591065}},{"type":"Feature","geometry":{"type":"LineString","coordinates":[[[114.39031430000011,30.523021500000027],[114.38955340000007,30.523021500000027],[114.38889510000001,30.523021500000027]]]},"properties":{"FID":22,"OBJECTID":30,"highway":"residential","building":" ","natural":" ","waterway":" ","amenity":" ","landuse":" ","place":" ","railway":" ","boundary":" ","power":" ","leisure":" ","man_made":" ","shop":" ","tourism":" ","route":" ","historic":" ","aeroway":" ","aerialway":" ","barrier":" ","military":" ","geological":" ","OSMID":"282494426","osmuser":"Gao xioix","osmuid":1761629,"osmvisible":"true","osmversion":1,"osmchanges":22389256,"osmtimesta":1400284800000,"osmSupport":"no","SHAPE_Leng":0.0014192000001,"length":157.984621344}},{"type":"Feature","geometry":{"type":"LineString","coordinates":[[[114.39031790000001,30.52410240000006],[114.38954760000001,30.524105200000065],[114.38865590000012,30.52411310000008]]]},"properties":{"FID":23,"OBJECTID":31,"highway":"residential","building":" ","natural":" ","waterway":" ","amenity":" ","landuse":" ","place":" ","railway":" ","boundary":" ","power":" ","leisure":" ","man_made":" ","shop":" ","tourism":" ","route":" ","historic":" ","aeroway":" ","aerialway":" ","barrier":" ","military":" ","geological":" ","OSMID":"282494428","osmuser":"Gao xioix","osmuid":1761629,"osmvisible":"true","osmversion":1,"osmchanges":22389256,"osmtimesta":1400284800000,"osmSupport":"no","SHAPE_Leng":0.00166204008307,"length":185.019006885}},{"type":"Feature","geometry":{"type":"LineString","coordinates":[[[114.38824920000002,30.52063620000007],[114.38889610000001,30.520629000000042],[114.38909690000003,30.520627200000035],[114.39102510000009,30.520610400000066]]]},"properties":{"FID":24,"OBJECTID":32,"highway":"residential","building":" ","natural":" ","waterway":" ","amenity":" ","landuse":" ","place":" ","railway":" ","boundary":" ","power":" ","leisure":" ","man_made":" ","shop":" ","tourism":" ","route":" ","historic":" ","aeroway":" ","aerialway":" ","barrier":" ","military":" ","geological":" ","OSMID":"282494431","osmuser":"Gao xioix","osmuid":1761629,"osmvisible":"true","osmversion":1,"osmchanges":22389256,"osmtimesta":1400284800000,"osmSupport":"no","SHAPE_Leng":0.00277602132046,"length":309.029973396}},{"type":"Feature","geometry":{"type":"LineString","coordinates":[[[114.39615480000009,30.52482150000003],[114.3961524,30.52500690000005],[114.3961488000001,30.525290900000073],[114.39614610000001,30.525505300000077],[114.3961445000001,30.525630500000034],[114.39614630000005,30.526063100000044]]]},"properties":{"FID":25,"OBJECTID":33,"highway":"residential","building":" ","natural":" ","waterway":" ","amenity":" ","landuse":" ","place":" ","railway":" ","boundary":" ","power":" ","leisure":" ","man_made":" ","shop":" ","tourism":" ","route":" ","historic":" ","aeroway":" ","aerialway":" ","barrier":" ","military":" ","geological":" ","OSMID":"282494434","osmuser":"Gao xioix","osmuid":1761629,"osmvisible":"true","osmversion":1,"osmchanges":22389256,"osmtimesta":1400284800000,"osmSupport":"no","SHAPE_Leng":0.0012416693176,"length":160.459033546}},{"type":"Feature","geometry":{"type":"LineString","coordinates":[[[114.39614630000005,30.526063100000044],[114.39592330000005,30.526063700000066],[114.39555040000005,30.525949300000036],[114.39550350000002,30.52592050000004],[114.39547670000002,30.52589160000008],[114.3954619000001,30.525848800000063],[114.39544850000004,30.525808400000074],[114.39544310000008,30.525668600000074],[114.3954592,30.52564090000004],[114.39549410000006,30.525638600000036],[114.3961445000001,30.525630500000034]]]},"properties":{"FID":26,"OBJECTID":34,"highway":"residential","building":" ","natural":" ","waterway":" ","amenity":" ","landuse":" ","place":" ","railway":" ","boundary":" ","power":" ","leisure":" ","man_made":" ","shop":" ","tourism":" ","route":" ","historic":" ","aeroway":" ","aerialway":" ","barrier":" ","military":" ","geological":" ","OSMID":"282494435","osmuser":"Gao xioix","osmuid":1761629,"osmvisible":"true","osmversion":1,"osmchanges":22389256,"osmtimesta":1400284800000,"osmSupport":"no","SHAPE_Leng":0.00165272537147,"length":189.668225649}},{"type":"Feature","geometry":{"type":"LineString","coordinates":[[[114.39614630000005,30.526063100000044],[114.39665720000005,30.525965900000074],[114.39668340000003,30.52594330000005],[114.39670650000005,30.525907500000073],[114.39675580000005,30.525785400000075],[114.39677580000011,30.52573890000008],[114.39679890000002,30.52571240000003],[114.39679590000003,30.525553200000047],[114.39678660000004,30.52553720000003],[114.39677280000001,30.525521300000037],[114.39674040000011,30.525509400000033],[114.39614610000001,30.525505300000077]]]},"properties":{"FID":27,"OBJECTID":35,"highway":"residential","building":" ","natural":" ","waterway":" ","amenity":" ","landuse":" ","place":" ","railway":" ","boundary":" ","power":" ","leisure":" ","man_made":" ","shop":" ","tourism":" ","route":" ","historic":" ","aeroway":" ","aerialway":" ","barrier":" ","military":" ","geological":" ","OSMID":"282494436","osmuser":"Gao xioix","osmuid":1761629,"osmvisible":"true","osmversion":1,"osmchanges":22389256,"osmtimesta":1400284800000,"osmSupport":"no","SHAPE_Leng":0.00164233976436,"length":190.595964627}},{"type":"Feature","geometry":{"type":"LineString","coordinates":[[[114.3961488000001,30.525290900000073],[114.3954331000001,30.52528810000007]]]},"properties":{"FID":28,"OBJECTID":36,"highway":"residential","building":" ","natural":" ","waterway":" ","amenity":" ","landuse":" ","place":" ","railway":" ","boundary":" ","power":" ","leisure":" ","man_made":" ","shop":" ","tourism":" ","route":" ","historic":" ","aeroway":" ","aerialway":" ","barrier":" ","military":" ","geological":" ","OSMID":"282494437","osmuser":"Gao xioix","osmuid":1761629,"osmvisible":"true","osmversion":1,"osmchanges":22389256,"osmtimesta":1400284800000,"osmSupport":"no","SHAPE_Leng":0.000715705477135,"length":79.6721812536}},{"type":"Feature","geometry":{"type":"LineString","coordinates":[[[114.3961524,30.52500690000005],[114.3954331000001,30.52500680000003]]]},"properties":{"FID":29,"OBJECTID":37,"highway":"residential","building":" ","natural":" ","waterway":" ","amenity":" ","landuse":" ","place":" ","railway":" ","boundary":" ","power":" ","leisure":" ","man_made":" ","shop":" ","tourism":" ","route":" ","historic":" ","aeroway":" ","aerialway":" ","barrier":" ","military":" ","geological":" ","OSMID":"282494438","osmuser":"Gao xioix","osmuid":1761629,"osmvisible":"true","osmversion":1,"osmchanges":22389256,"osmtimesta":1400284800000,"osmSupport":"no","SHAPE_Leng":0.000719300006852,"length":80.0721107607}},{"type":"Feature","geometry":{"type":"LineString","coordinates":[[[114.39473630000009,30.525541800000042],[114.39473980000002,30.525392400000044],[114.3947151000001,30.525264400000026],[114.39472740000008,30.524767000000054],[114.39473010000006,30.524656900000025],[114.39473930000008,30.524285100000043],[114.3935408000001,30.52429310000008],[114.39359310000009,30.525654600000053]]]},"properties":{"FID":30,"OBJECTID":38,"highway":"residential","building":" ","natural":" ","waterway":" ","amenity":" ","landuse":" ","place":" ","railway":" ","boundary":" ","power":" ","leisure":" ","man_made":" ","shop":" ","tourism":" ","route":" ","historic":" ","aeroway":" ","aerialway":" ","barrier":" ","military":" ","geological":" ","OSMID":"282494439","osmuser":"Gao xioix","osmuid":1761629,"osmvisible":"true","osmversion":1,"osmchanges":22389256,"osmtimesta":1400284800000,"osmSupport":"no","SHAPE_Leng":0.00382043218291,"length":472.125417128}},{"type":"Feature","geometry":{"type":"LineString","coordinates":[[[114.39473930000008,30.524285100000043],[114.39539060000004,30.524415700000077],[114.39541470000006,30.524420500000076],[114.39549390000002,30.52445380000006],[114.39561790000005,30.524520300000063],[114.39568700000007,30.524572900000067],[114.39574600000003,30.52464290000006],[114.39577440000005,30.52470770000008],[114.39578870000003,30.524755000000027]]]},"properties":{"FID":31,"OBJECTID":39,"highway":"residential","building":" ","natural":" ","waterway":" ","amenity":" ","landuse":" ","place":" ","railway":" ","boundary":" ","power":" ","leisure":" ","man_made":" ","shop":" ","tourism":" ","route":" ","historic":" ","aeroway":" ","aerialway":" ","barrier":" ","military":" ","geological":" ","OSMID":"282494440","osmuser":"Gao xioix","osmuid":1761629,"osmvisible":"true","osmversion":1,"osmchanges":22389256,"osmtimesta":1400284800000,"osmSupport":"no","SHAPE_Leng":0.00121401514004,"length":139.976749747}},{"type":"Feature","geometry":{"type":"LineString","coordinates":[[[114.39472740000008,30.524767000000054],[114.3953944000001,30.524759500000073],[114.39578870000003,30.524755000000027],[114.39601840000012,30.524753200000077],[114.3960489000001,30.524732200000074],[114.39608550000003,30.524686700000075],[114.39610990000006,30.524637700000028],[114.39634980000005,30.524465400000054]]]},"properties":{"FID":32,"OBJECTID":40,"highway":"residential","building":" ","natural":" ","waterway":" ","amenity":" ","landuse":" ","place":" ","railway":" ","boundary":" ","power":" ","leisure":" ","man_made":" ","shop":" ","tourism":" ","route":" ","historic":" ","aeroway":" ","aerialway":" ","barrier":" ","military":" ","geological":" ","OSMID":"282494441","osmuser":"Gao xioix","osmuid":1761629,"osmvisible":"true","osmversion":1,"osmchanges":22389256,"osmtimesta":1400284800000,"osmSupport":"no","SHAPE_Leng":0.00173660088076,"length":196.885251995}},{"type":"Feature","geometry":{"type":"LineString","coordinates":[[[114.3953944000001,30.524759500000073],[114.39539310000009,30.52464640000005],[114.39539060000004,30.524415700000077]]]},"properties":{"FID":33,"OBJECTID":41,"highway":"residential","building":" ","natural":" ","waterway":" ","amenity":" ","landuse":" ","place":" ","railway":" ","boundary":" ","power":" ","leisure":" ","man_made":" ","shop":" ","tourism":" ","route":" ","historic":" ","aeroway":" ","aerialway":" ","barrier":" ","military":" ","geological":" ","OSMID":"282494442","osmuser":"Gao xioix","osmuid":1761629,"osmvisible":"true","osmversion":1,"osmchanges":22389256,"osmtimesta":1400284800000,"osmSupport":"no","SHAPE_Leng":0.000343821016347,"length":44.4310144179}},{"type":"Feature","geometry":{"type":"LineString","coordinates":[[[114.39539310000009,30.52464640000005],[114.39473010000006,30.524656900000025]]]},"properties":{"FID":34,"OBJECTID":42,"highway":"residential","building":" ","natural":" ","waterway":" ","amenity":" ","landuse":" ","place":" ","railway":" ","boundary":" ","power":" ","leisure":" ","man_made":" ","shop":" ","tourism":" ","route":" ","historic":" ","aeroway":" ","aerialway":" ","barrier":" ","military":" ","geological":" ","OSMID":"282494443","osmuser":"Gao xioix","osmuid":1761629,"osmvisible":"true","osmversion":1,"osmchanges":22389256,"osmtimesta":1400284800000,"osmSupport":"no","SHAPE_Leng":0.000663083139615,"length":73.8172947722}},{"type":"Feature","geometry":{"type":"LineString","coordinates":[[[114.39674040000011,30.525509400000033],[114.39669200000003,30.525454000000025],[114.39666270000009,30.52538110000006],[114.39667400000008,30.52531010000007],[114.39666090000003,30.525279600000033],[114.39663040000005,30.52526560000007],[114.3961488000001,30.525290900000073]]]},"properties":{"FID":35,"OBJECTID":43,"highway":"residential","building":" ","natural":" ","waterway":" ","amenity":" ","landuse":" ","place":" ","railway":" ","boundary":" ","power":" ","leisure":" ","man_made":" ","shop":" ","tourism":" ","route":" ","historic":" ","aeroway":" ","aerialway":" ","barrier":" ","military":" ","geological":" ","OSMID":"282494444","osmuser":"Gao xioix","osmuid":1761629,"osmvisible":"true","osmversion":1,"osmchanges":22389256,"osmtimesta":1400284800000,"osmSupport":"no","SHAPE_Leng":0.000773043812976,"length":89.9518369207}},{"type":"Feature","geometry":{"type":"LineString","coordinates":[[[114.39666090000003,30.525279600000033],[114.39681430000007,30.525162100000045]]]},"properties":{"FID":36,"OBJECTID":44,"highway":"residential","building":" ","natural":" ","waterway":" ","amenity":" ","landuse":" ","place":" ","railway":" ","boundary":" ","power":" ","leisure":" ","man_made":" ","shop":" ","tourism":" ","route":" ","historic":" ","aeroway":" ","aerialway":" ","barrier":" ","military":" ","geological":" ","OSMID":"282494445","osmuser":"Gao xioix","osmuid":1761629,"osmvisible":"true","osmversion":1,"osmchanges":22389256,"osmtimesta":1400284800000,"osmSupport":"no","SHAPE_Leng":0.000193229940772,"length":22.8511208964}},{"type":"Feature","geometry":{"type":"LineString","coordinates":[[[114.3933518,30.52135930000003],[114.39205940000011,30.52135400000003],[114.39108320000003,30.52135050000004],[114.39033140000004,30.52134680000006]]]},"properties":{"FID":37,"OBJECTID":45,"highway":"residential","building":" ","natural":" ","waterway":" ","amenity":" ","landuse":" ","place":" ","railway":" ","boundary":" ","power":" ","leisure":" ","man_made":" ","shop":" ","tourism":" ","route":" ","historic":" ","aeroway":" ","aerialway":" ","barrier":" ","military":" ","geological":" ","OSMID":"282489705","osmuser":"Gao xioix","osmuid":1761629,"osmvisible":"true","osmversion":2,"osmchanges":22389256,"osmtimesta":1400284800000,"osmSupport":"no","SHAPE_Leng":0.00302042624637,"length":336.233327213}},{"type":"Feature","geometry":{"type":"LineString","coordinates":[[[114.39033140000004,30.52134680000006],[114.39032210000005,30.52207690000006],[114.39031430000011,30.523021500000027],[114.39031790000001,30.52410240000006],[114.39032060000011,30.524928700000032]]]},"properties":{"FID":38,"OBJECTID":46,"highway":"residential","building":" ","natural":" ","waterway":" ","amenity":" ","landuse":" ","place":" ","railway":" ","boundary":" ","power":" ","leisure":" ","man_made":" ","shop":" ","tourism":" ","route":" ","historic":" ","aeroway":" ","aerialway":" ","barrier":" ","military":" ","geological":" ","OSMID":"282489707","osmuser":"Gao xioix","osmuid":1761629,"osmvisible":"true","osmversion":2,"osmchanges":22389256,"osmtimesta":1400284800000,"osmSupport":"no","SHAPE_Leng":0.00358200183895,"length":462.888932823}},{"type":"Feature","geometry":{"type":"LineString","coordinates":[[[114.39345520000006,30.52592990000005],[114.39344430000006,30.525428000000034],[114.39342940000006,30.524736800000028],[114.39340750000008,30.52389590000007],[114.39338590000011,30.522910500000023],[114.3933743,30.522381600000074],[114.39336490000005,30.521955500000047],[114.3933518,30.52135930000003]]]},"properties":{"FID":39,"OBJECTID":47,"highway":"residential","building":" ","natural":" ","waterway":" ","amenity":" ","landuse":" ","place":" ","railway":" ","boundary":" ","power":" ","leisure":" ","man_made":" ","shop":" ","tourism":" ","route":" ","historic":" ","aeroway":" ","aerialway":" ","barrier":" ","military":" ","geological":" ","OSMID":"282489695","osmuser":"比目鱼","osmuid":2765880,"osmvisible":"true","osmversion":3,"osmchanges":29555048,"osmtimesta":1426636800000,"osmSupport":"no","SHAPE_Leng":0.00457177552788,"length":590.761980367}},{"type":"Feature","geometry":{"type":"LineString","coordinates":[[[114.39344430000006,30.525428000000034],[114.39255550000007,30.525433200000066],[114.39102090000006,30.525442300000066]]]},"properties":{"FID":40,"OBJECTID":48,"highway":"residential","building":" ","natural":" ","waterway":" ","amenity":" ","landuse":" ","place":" ","railway":" ","boundary":" ","power":" ","leisure":" ","man_made":" ","shop":" ","tourism":" ","route":" ","historic":" ","aeroway":" ","aerialway":" ","barrier":" ","military":" ","geological":" ","OSMID":"282494425","osmuser":"lgt945","osmuid":2088668,"osmvisible":"true","osmversion":2,"osmchanges":22499850,"osmtimesta":1400803200000,"osmSupport":"no","SHAPE_Leng":0.00242344219212,"length":269.777983757}},{"type":"Feature","geometry":{"type":"LineString","coordinates":[[[114.39211060000002,30.524758200000065],[114.39284600000008,30.52474630000006],[114.39342940000006,30.524736800000028]]]},"properties":{"FID":41,"OBJECTID":49,"highway":"residential","building":" ","natural":" ","waterway":" ","amenity":" ","landuse":" ","place":" ","railway":" ","boundary":" ","power":" ","leisure":" ","man_made":" ","shop":" ","tourism":" ","route":" ","historic":" ","aeroway":" ","aerialway":" ","barrier":" ","military":" ","geological":" ","OSMID":"282494423","osmuser":"lgt945","osmuid":2088668,"osmvisible":"true","osmversion":2,"osmchanges":22499850,"osmtimesta":1400803200000,"osmSupport":"no","SHAPE_Leng":0.00131897361785,"length":146.834190152}},{"type":"Feature","geometry":{"type":"LineString","coordinates":[[[114.39614920000008,30.522874100000024],[114.39769980000005,30.52285370000004],[114.39792000000011,30.522850600000027],[114.3985216000001,30.522841500000027],[114.39916700000003,30.52283170000004]]]},"properties":{"FID":42,"OBJECTID":50,"highway":"residential","building":" ","natural":" ","waterway":" ","amenity":" ","landuse":" ","place":" ","railway":" ","boundary":" ","power":" ","leisure":" ","man_made":" ","shop":" ","tourism":" ","route":" ","historic":" ","aeroway":" ","aerialway":" ","barrier":" ","military":" ","geological":" ","OSMID":"282495542","osmuser":"Gao xioix","osmuid":1761629,"osmvisible":"true","osmversion":1,"osmchanges":22389360,"osmtimesta":1400284800000,"osmSupport":"no","SHAPE_Leng":0.0030180992274,"length":335.984847119}},{"type":"Feature","geometry":{"type":"LineString","coordinates":[[[114.39799420000008,30.525501700000063],[114.39792000000011,30.522850600000027]]]},"properties":{"FID":43,"OBJECTID":51,"highway":"residential","building":" ","natural":" ","waterway":" ","amenity":" ","landuse":" ","place":" ","railway":" ","boundary":" ","power":" ","leisure":" ","man_made":" ","shop":" ","tourism":" ","route":" ","historic":" ","aeroway":" ","aerialway":" ","barrier":" ","military":" ","geological":" ","OSMID":"282495543","osmuser":"Gao xioix","osmuid":1761629,"osmvisible":"true","osmversion":1,"osmchanges":22389360,"osmtimesta":1400284800000,"osmSupport":"no","SHAPE_Leng":0.00265213816574,"length":342.697639756}},{"type":"Feature","geometry":{"type":"LineString","coordinates":[[[114.39877480000007,30.525487600000076],[114.39877000000001,30.524430600000073],[114.3988773000001,30.52392690000005],[114.39916160000007,30.523427800000036],[114.39916240000002,30.523346900000035],[114.39916700000003,30.52283170000004]]]},"properties":{"FID":44,"OBJECTID":52,"highway":"residential","building":" ","natural":" ","waterway":" ","amenity":" ","landuse":" ","place":" ","railway":" ","boundary":" ","power":" ","leisure":" ","man_made":" ","shop":" ","tourism":" ","route":" ","historic":" ","aeroway":" ","aerialway":" ","barrier":" ","military":" ","geological":" ","OSMID":"282495544","osmuser":"Gao xioix","osmuid":1761629,"osmvisible":"true","osmversion":1,"osmchanges":22389360,"osmtimesta":1400284800000,"osmSupport":"no","SHAPE_Leng":0.00274253029573,"length":351.654848976}},{"type":"Feature","geometry":{"type":"LineString","coordinates":[[[114.39997140000003,30.520906100000047],[114.40001280000001,30.520905500000026],[114.40160750000007,30.520883000000026]]]},"properties":{"FID":45,"OBJECTID":53,"highway":"residential","building":" ","natural":" ","waterway":" ","amenity":" ","landuse":" ","place":" ","railway":" ","boundary":" ","power":" ","leisure":" ","man_made":" ","shop":" ","tourism":" ","route":" ","historic":" ","aeroway":" ","aerialway":" ","barrier":" ","military":" ","geological":" ","OSMID":"282495548","osmuser":"Gao xioix","osmuid":1761629,"osmvisible":"true","osmversion":1,"osmchanges":22389360,"osmtimesta":1400284800000,"osmSupport":"no","SHAPE_Leng":0.00163626306866,"length":182.154280216}},{"type":"Feature","geometry":{"type":"LineString","coordinates":[[[114.3985216000001,30.522841500000027],[114.39852170000006,30.522126100000037],[114.39852170000006,30.521621800000048],[114.39852180000003,30.520911300000023]]]},"properties":{"FID":46,"OBJECTID":54,"highway":"residential","building":" ","natural":" ","waterway":" ","amenity":" ","landuse":" ","place":" ","railway":" ","boundary":" ","power":" ","leisure":" ","man_made":" ","shop":" ","tourism":" ","route":" ","historic":" ","aeroway":" ","aerialway":" ","barrier":" ","military":" ","geological":" ","OSMID":"282495549","osmuser":"Gao xioix","osmuid":1761629,"osmvisible":"true","osmversion":1,"osmchanges":22389360,"osmtimesta":1400284800000,"osmSupport":"no","SHAPE_Leng":0.00193020001403,"length":249.431245006}},{"type":"Feature","geometry":{"type":"LineString","coordinates":[[[114.39852180000003,30.520911300000023],[114.39852970000004,30.520106800000065],[114.3977182000001,30.52012780000007],[114.39660650000008,30.520136800000046]]]},"properties":{"FID":47,"OBJECTID":55,"highway":"residential","building":" ","natural":" ","waterway":" ","amenity":" ","landuse":" ","place":" ","railway":" ","boundary":" ","power":" ","leisure":" ","man_made":" ","shop":" ","tourism":" ","route":" ","historic":" ","aeroway":" ","aerialway":" ","barrier":" ","military":" ","geological":" ","OSMID":"282495550","osmuser":"Gao xioix","osmuid":1761629,"osmvisible":"true","osmversion":1,"osmchanges":22389360,"osmtimesta":1400284800000,"osmSupport":"no","SHAPE_Leng":0.00272804689071,"length":318.100107981}},{"type":"Feature","geometry":{"type":"LineString","coordinates":[[[114.39660650000008,30.520136800000046],[114.39659570000003,30.51903240000007]]]},"properties":{"FID":48,"OBJECTID":56,"highway":"residential","building":" ","natural":" ","waterway":" ","amenity":" ","landuse":" ","place":" ","railway":" ","boundary":" ","power":" ","leisure":" ","man_made":" ","shop":" ","tourism":" ","route":" ","historic":" ","aeroway":" ","aerialway":" ","barrier":" ","military":" ","geological":" ","OSMID":"282495551","osmuser":"Gao xioix","osmuid":1761629,"osmvisible":"true","osmversion":1,"osmchanges":22389360,"osmtimesta":1400284800000,"osmSupport":"no","SHAPE_Leng":0.00110445280567,"length":142.718445783}},{"type":"Feature","geometry":{"type":"LineString","coordinates":[[[114.39772570000002,30.51902780000006],[114.39659570000003,30.51903240000007],[114.39575890000003,30.519037000000026]]]},"properties":{"FID":49,"OBJECTID":57,"highway":"residential","building":" ","natural":" ","waterway":" ","amenity":" ","landuse":" ","place":" ","railway":" ","boundary":" ","power":" ","leisure":" ","man_made":" ","shop":" ","tourism":" ","route":" ","historic":" ","aeroway":" ","aerialway":" ","barrier":" ","military":" ","geological":" ","OSMID":"282495552","osmuser":"Gao xioix","osmuid":1761629,"osmvisible":"true","osmversion":1,"osmchanges":22389360,"osmtimesta":1400284800000,"osmSupport":"no","SHAPE_Leng":0.00196682200609,"length":218.946475469}},{"type":"Feature","geometry":{"type":"LineString","coordinates":[[[114.39770800000008,30.52163390000004],[114.39852170000006,30.521621800000048]]]},"properties":{"FID":50,"OBJECTID":58,"highway":"residential","building":" ","natural":" ","waterway":" ","amenity":" ","landuse":" ","place":" ","railway":" ","boundary":" ","power":" ","leisure":" ","man_made":" ","shop":" ","tourism":" ","route":" ","historic":" ","aeroway":" ","aerialway":" ","barrier":" ","military":" ","geological":" ","OSMID":"282495553","osmuser":"Gao xioix","osmuid":1761629,"osmvisible":"true","osmversion":1,"osmchanges":22389360,"osmtimesta":1400284800000,"osmSupport":"no","SHAPE_Leng":0.000813789960597,"length":90.594164496}},{"type":"Feature","geometry":{"type":"LineString","coordinates":[[[114.39995930000009,30.523328400000025],[114.39997970000002,30.52259520000007],[114.40001280000001,30.520905500000026]]]},"properties":{"FID":51,"OBJECTID":59,"highway":"residential","building":" ","natural":" ","waterway":" ","amenity":" ","landuse":" ","place":" ","railway":" ","boundary":" ","power":" ","leisure":" ","man_made":" ","shop":" ","tourism":" ","route":" ","historic":" ","aeroway":" ","aerialway":" ","barrier":" ","military":" ","geological":" ","OSMID":"282495554","osmuser":"Gao xioix","osmuid":1761629,"osmvisible":"true","osmversion":1,"osmchanges":22389360,"osmtimesta":1400284800000,"osmSupport":"no","SHAPE_Leng":0.00242350791357,"length":313.159766825}},{"type":"Feature","geometry":{"type":"LineString","coordinates":[[[114.39916700000003,30.52283170000004],[114.39916690000007,30.522591900000066],[114.39916660000006,30.522112100000072]]]},"properties":{"FID":52,"OBJECTID":60,"highway":"residential","building":" ","natural":" ","waterway":" ","amenity":" ","landuse":" ","place":" ","railway":" ","boundary":" ","power":" ","leisure":" ","man_made":" ","shop":" ","tourism":" ","route":" ","historic":" ","aeroway":" ","aerialway":" ","barrier":" ","military":" ","geological":" ","OSMID":"282495556","osmuser":"Gao xioix","osmuid":1761629,"osmvisible":"true","osmversion":1,"osmchanges":22389360,"osmtimesta":1400284800000,"osmSupport":"no","SHAPE_Leng":0.000719600114608,"length":92.9913190295}},{"type":"Feature","geometry":{"type":"LineString","coordinates":[[[114.39916660000006,30.522112100000072],[114.39852170000006,30.522126100000037]]]},"properties":{"FID":53,"OBJECTID":61,"highway":"residential","building":" ","natural":" ","waterway":" ","amenity":" ","landuse":" ","place":" ","railway":" ","boundary":" ","power":" ","leisure":" ","man_made":" ","shop":" ","tourism":" ","route":" ","historic":" ","aeroway":" ","aerialway":" ","barrier":" ","military":" ","geological":" ","OSMID":"282495557","osmuser":"Gao xioix","osmuid":1761629,"osmvisible":"true","osmversion":1,"osmchanges":22389360,"osmtimesta":1400284800000,"osmSupport":"no","SHAPE_Leng":0.000645051943642,"length":71.8127321561}},{"type":"Feature","geometry":{"type":"LineString","coordinates":[[[114.39916690000007,30.522591900000066],[114.39997970000002,30.52259520000007]]]},"properties":{"FID":54,"OBJECTID":62,"highway":"residential","building":" ","natural":" ","waterway":" ","amenity":" ","landuse":" ","place":" ","railway":" ","boundary":" ","power":" ","leisure":" ","man_made":" ","shop":" ","tourism":" ","route":" ","historic":" ","aeroway":" ","aerialway":" ","barrier":" ","military":" ","geological":" ","OSMID":"282495559","osmuser":"Gao xioix","osmuid":1761629,"osmvisible":"true","osmversion":1,"osmchanges":22389360,"osmtimesta":1400284800000,"osmSupport":"no","SHAPE_Leng":0.000812806698986,"length":90.4814870617}},{"type":"Feature","geometry":{"type":"LineString","coordinates":[[[114.39858740000011,30.52091070000006],[114.39993590000006,30.52090620000007],[114.39997140000003,30.520906100000047]]]},"properties":{"FID":55,"OBJECTID":63,"highway":"residential","building":" ","natural":" ","waterway":" ","amenity":" ","landuse":" ","place":" ","railway":" ","boundary":" ","power":" ","leisure":" ","man_made":" ","shop":" ","tourism":" ","route":" ","historic":" ","aeroway":" ","aerialway":" ","barrier":" ","military":" ","geological":" ","OSMID":"282495547","osmuser":"appproximate","osmuid":3828281,"osmvisible":"true","osmversion":3,"osmchanges":39133280,"osmtimesta":1462492800000,"osmSupport":"no","SHAPE_Leng":0.00138400764908,"length":154.067322691}},{"type":"Feature","geometry":{"type":"LineString","coordinates":[[[114.39916240000002,30.523346900000035],[114.39995930000009,30.523328400000025],[114.40065450000009,30.52332590000003],[114.40123060000008,30.52332380000007]]]},"properties":{"FID":56,"OBJECTID":64,"highway":"residential","building":" ","natural":" ","waterway":" ","amenity":" ","landuse":" ","place":" ","railway":" ","boundary":" ","power":" ","leisure":" ","man_made":" ","shop":" ","tourism":" ","route":" ","historic":" ","aeroway":" ","aerialway":" ","barrier":" ","military":" ","geological":" ","OSMID":"282495555","osmuser":"CUGiser","osmuid":2303360,"osmvisible":"true","osmversion":2,"osmchanges":25250520,"osmtimesta":1409875200000,"osmSupport":"no","SHAPE_Leng":0.00206842303203,"length":230.264427823}},{"type":"Feature","geometry":{"type":"LineString","coordinates":[[[114.39769980000005,30.52285370000004],[114.39770800000008,30.52163390000004],[114.39770890000011,30.52149460000004],[114.39771030000009,30.521289000000024],[114.39771180000002,30.52106310000005],[114.3977182000001,30.52012780000007],[114.39772570000002,30.51902780000006],[114.39773520000006,30.517620700000066]]]},"properties":{"FID":57,"OBJECTID":65,"highway":"residential","building":" ","natural":" ","waterway":" ","amenity":" ","landuse":" ","place":" ","railway":" ","boundary":" ","power":" ","leisure":" ","man_made":" ","shop":" ","tourism":" ","route":" ","historic":" ","aeroway":" ","aerialway":" ","barrier":" ","military":" ","geological":" ","OSMID":"282495545","osmuser":"CUGiser","osmuid":2303360,"osmvisible":"true","osmversion":3,"osmchanges":25598774,"osmtimesta":1411344000000,"osmSupport":"no","SHAPE_Leng":0.00523311974892,"length":676.237617376}},{"type":"Feature","geometry":{"type":"LineString","coordinates":[[[114.39579590000005,30.52093560000003],[114.39631110000005,30.520931000000076],[114.39852180000003,30.520911300000023],[114.39858740000011,30.52091070000006]]]},"properties":{"FID":58,"OBJECTID":66,"highway":"residential","building":" ","natural":" ","waterway":" ","amenity":" ","landuse":" ","place":" ","railway":" ","boundary":" ","power":" ","leisure":" ","man_made":" ","shop":" ","tourism":" ","route":" ","historic":" ","aeroway":" ","aerialway":" ","barrier":" ","military":" ","geological":" ","OSMID":"282495546","osmuser":"CUGiser","osmuid":2303360,"osmvisible":"true","osmversion":2,"osmchanges":25598774,"osmtimesta":1411344000000,"osmSupport":"no","SHAPE_Leng":0.00279161105283,"length":310.765017357}},{"type":"Feature","geometry":{"type":"LineString","coordinates":[[[114.39381430000003,30.529206900000077],[114.39386230000002,30.52940700000005],[114.39394370000002,30.52955940000004],[114.39424550000001,30.529935100000046]]]},"properties":{"FID":59,"OBJECTID":67,"highway":"residential","building":" ","natural":" ","waterway":" ","amenity":" ","landuse":" ","place":" ","railway":" ","boundary":" ","power":" ","leisure":" ","man_made":" ","shop":" ","tourism":" ","route":" ","historic":" ","aeroway":" ","aerialway":" ","barrier":" ","military":" ","geological":" ","OSMID":"282496082","osmuser":"Gao xioix","osmuid":1761629,"osmvisible":"true","osmversion":1,"osmchanges":22389434,"osmtimesta":1400284800000,"osmSupport":"no","SHAPE_Leng":0.000860459454984,"length":107.130307865}},{"type":"Feature","geometry":{"type":"LineString","coordinates":[[[114.39507540000011,30.529321800000048],[114.39499500000011,30.52964030000004],[114.39494420000005,30.530278400000043],[114.39492110000003,30.530809100000056],[114.39490100000012,30.530847600000072],[114.39486870000007,30.530864800000074],[114.39417200000003,30.530820900000037]]]},"properties":{"FID":60,"OBJECTID":68,"highway":"residential","building":" ","natural":" ","waterway":" ","amenity":" ","landuse":" ","place":" ","railway":" ","boundary":" ","power":" ","leisure":" ","man_made":" ","shop":" ","tourism":" ","route":" ","historic":" ","aeroway":" ","aerialway":" ","barrier":" ","military":" ","geological":" ","OSMID":"282496084","osmuser":"Gao xioix","osmuid":1761629,"osmvisible":"true","osmversion":1,"osmchanges":22389434,"osmtimesta":1400284800000,"osmSupport":"no","SHAPE_Leng":0.00227791949789,"length":280.863475167}},{"type":"Feature","geometry":{"type":"LineString","coordinates":[[[114.39492110000003,30.530809100000056],[114.39594640000007,30.53088930000007]]]},"properties":{"FID":61,"OBJECTID":69,"highway":"residential","building":" ","natural":" ","waterway":" ","amenity":" ","landuse":" ","place":" ","railway":" ","boundary":" ","power":" ","leisure":" ","man_made":" ","shop":" ","tourism":" ","route":" ","historic":" ","aeroway":" ","aerialway":" ","barrier":" ","military":" ","geological":" ","OSMID":"282496085","osmuser":"Gao xioix","osmuid":1761629,"osmvisible":"true","osmversion":1,"osmchanges":22389434,"osmtimesta":1400284800000,"osmSupport":"no","SHAPE_Leng":0.00102843187916,"length":114.605531393}},{"type":"Feature","geometry":{"type":"LineString","coordinates":[[[114.39499500000011,30.52964030000004],[114.39602830000001,30.529727000000037],[114.39604770000005,30.529746800000055],[114.39599340000007,30.530359000000033],[114.39594640000007,30.53088930000007],[114.3958894000001,30.531502800000055],[114.39583760000005,30.531789700000047],[114.39577520000012,30.532118500000024]]]},"properties":{"FID":62,"OBJECTID":70,"highway":"residential","building":" ","natural":" ","waterway":" ","amenity":" ","landuse":" ","place":" ","railway":" ","boundary":" ","power":" ","leisure":" ","man_made":" ","shop":" ","tourism":" ","route":" ","historic":" ","aeroway":" ","aerialway":" ","barrier":" ","military":" ","geological":" ","OSMID":"282496086","osmuser":"Gao xioix","osmuid":1761629,"osmvisible":"true","osmversion":1,"osmchanges":22389434,"osmtimesta":1400284800000,"osmSupport":"no","SHAPE_Leng":0.00345398285902,"length":427.125359423}},{"type":"Feature","geometry":{"type":"LineString","coordinates":[[[114.39494420000005,30.530278400000043],[114.39599340000007,30.530359000000033]]]},"properties":{"FID":63,"OBJECTID":71,"highway":"residential","building":" ","natural":" ","waterway":" ","amenity":" ","landuse":" ","place":" ","railway":" ","boundary":" ","power":" ","leisure":" ","man_made":" ","shop":" ","tourism":" ","route":" ","historic":" ","aeroway":" ","aerialway":" ","barrier":" ","military":" ","geological":" ","OSMID":"282496087","osmuser":"Gao xioix","osmuid":1761629,"osmvisible":"true","osmversion":1,"osmchanges":22389434,"osmtimesta":1400284800000,"osmSupport":"no","SHAPE_Leng":0.00105229130949,"length":117.259986994}},{"type":"Feature","geometry":{"type":"LineString","coordinates":[[[114.39583760000005,30.531789700000047],[114.3947912000001,30.53170220000004],[114.39410360000011,30.531644700000072]]]},"properties":{"FID":64,"OBJECTID":72,"highway":"residential","building":" ","natural":" ","waterway":" ","amenity":" ","landuse":" ","place":" ","railway":" ","boundary":" ","power":" ","leisure":" ","man_made":" ","shop":" ","tourism":" ","route":" ","historic":" ","aeroway":" ","aerialway":" ","barrier":" ","military":" ","geological":" ","OSMID":"282496088","osmuser":"Gao xioix","osmuid":1761629,"osmvisible":"true","osmversion":1,"osmchanges":22389434,"osmtimesta":1400284800000,"osmSupport":"no","SHAPE_Leng":0.00174005201066,"length":193.935506258}},{"type":"Feature","geometry":{"type":"LineString","coordinates":[[[114.39243110000007,30.53101360000005],[114.39246180000009,30.531312600000035],[114.39250040000002,30.531687100000056]]]},"properties":{"FID":65,"OBJECTID":73,"highway":"residential","building":" ","natural":" ","waterway":" ","amenity":" ","landuse":" ","place":" ","railway":" ","boundary":" ","power":" ","leisure":" ","man_made":" ","shop":" ","tourism":" ","route":" ","historic":" ","aeroway":" ","aerialway":" ","barrier":" ","military":" ","geological":" ","OSMID":"282496092","osmuser":"Gao xioix","osmuid":1761629,"osmvisible":"true","osmversion":1,"osmchanges":22389434,"osmtimesta":1400284800000,"osmSupport":"no","SHAPE_Leng":0.000677055948429,"length":87.3831189126}},{"type":"Feature","geometry":{"type":"LineString","coordinates":[[[114.3914694,30.531386800000064],[114.39208750000012,30.531340600000078],[114.39246180000009,30.531312600000035]]]},"properties":{"FID":66,"OBJECTID":74,"highway":"residential","building":" ","natural":" ","waterway":" ","amenity":" ","landuse":" ","place":" ","railway":" ","boundary":" ","power":" ","leisure":" ","man_made":" ","shop":" ","tourism":" ","route":" ","historic":" ","aeroway":" ","aerialway":" ","barrier":" ","military":" ","geological":" ","OSMID":"282496094","osmuser":"Gao xioix","osmuid":1761629,"osmvisible":"true","osmversion":1,"osmchanges":22389434,"osmtimesta":1400284800000,"osmSupport":"no","SHAPE_Leng":0.000995170036243,"length":110.888881236}},{"type":"Feature","geometry":{"type":"LineString","coordinates":[[[114.39208750000012,30.531340600000078],[114.39211480000006,30.53170380000006]]]},"properties":{"FID":67,"OBJECTID":75,"highway":"residential","building":" ","natural":" ","waterway":" ","amenity":" ","landuse":" ","place":" ","railway":" ","boundary":" ","power":" ","leisure":" ","man_made":" ","shop":" ","tourism":" ","route":" ","historic":" ","aeroway":" ","aerialway":" ","barrier":" ","military":" ","geological":" ","OSMID":"282496095","osmuser":"Gao xioix","osmuid":1761629,"osmvisible":"true","osmversion":1,"osmchanges":22389434,"osmtimesta":1400284800000,"osmSupport":"no","SHAPE_Leng":0.00036422455983,"length":47.0376712983}},{"type":"Feature","geometry":{"type":"LineString","coordinates":[[[114.39694770000006,30.528751700000043],[114.39744850000011,30.52862220000003],[114.3981023,30.528348700000038],[114.3987188000001,30.52807720000004],[114.39914610000005,30.527855900000077],[114.3992558000001,30.52775740000004],[114.39944260000004,30.527363200000025],[114.39947310000002,30.526496300000076]]]},"properties":{"FID":68,"OBJECTID":76,"highway":"residential","building":" ","natural":" ","waterway":" ","amenity":" ","landuse":" ","place":" ","railway":" ","boundary":" ","power":" ","leisure":" ","man_made":" ","shop":" ","tourism":" ","route":" ","historic":" ","aeroway":" ","aerialway":" ","barrier":" ","military":" ","geological":" ","OSMID":"283731829","osmuser":"lgt945","osmuid":2088668,"osmvisible":"true","osmversion":2,"osmchanges":22498999,"osmtimesta":1400803200000,"osmSupport":"no","SHAPE_Leng":0.00383190315374,"length":456.44345999}},{"type":"Feature","geometry":{"type":"LineString","coordinates":[[[114.39421190000007,30.530340400000057],[114.39371390000008,30.530300000000068],[114.39368550000006,30.53048380000007],[114.39350250000007,30.530471600000055]]]},"properties":{"FID":69,"OBJECTID":77,"highway":"residential","building":" ","natural":" ","waterway":" ","amenity":" ","landuse":" ","place":" ","railway":" ","boundary":" ","power":" ","leisure":" ","man_made":" ","shop":" ","tourism":" ","route":" ","historic":" ","aeroway":" ","aerialway":" ","barrier":" ","military":" ","geological":" ","OSMID":"283732267","osmuser":"lgt945","osmuid":2088668,"osmvisible":"true","osmversion":1,"osmchanges":22499025,"osmtimesta":1400803200000,"osmSupport":"no","SHAPE_Leng":0.000869023425175,"length":100.078033061}},{"type":"Feature","geometry":{"type":"LineString","coordinates":[[[114.39350250000007,30.530471600000055],[114.39347240000006,30.53073440000003]]]},"properties":{"FID":70,"OBJECTID":78,"highway":"residential","building":" ","natural":" ","waterway":" ","amenity":" ","landuse":" ","place":" ","railway":" ","boundary":" ","power":" ","leisure":" ","man_made":" ","shop":" ","tourism":" ","route":" ","historic":" ","aeroway":" ","aerialway":" ","barrier":" ","military":" ","geological":" ","OSMID":"283732268","osmuser":"lgt945","osmuid":2088668,"osmvisible":"true","osmversion":1,"osmchanges":22499025,"osmtimesta":1400803200000,"osmSupport":"no","SHAPE_Leng":0.000264518146799,"length":34.1284209308}},{"type":"Feature","geometry":{"type":"LineString","coordinates":[[[114.39155970000002,30.530951900000048],[114.39243110000007,30.53101360000005],[114.39245930000004,30.531015600000046]]]},"properties":{"FID":71,"OBJECTID":79,"highway":"residential","building":" ","natural":" ","waterway":" ","amenity":" ","landuse":" ","place":" ","railway":" ","boundary":" ","power":" ","leisure":" ","man_made":" ","shop":" ","tourism":" ","route":" ","historic":" ","aeroway":" ","aerialway":" ","barrier":" ","military":" ","geological":" ","OSMID":"282496090","osmuser":"lgt945","osmuid":2088668,"osmvisible":"true","osmversion":2,"osmchanges":22499025,"osmtimesta":1400803200000,"osmSupport":"no","SHAPE_Leng":0.000901852454882,"length":100.480825752}},{"type":"Feature","geometry":{"type":"LineString","coordinates":[[[114.3941814000001,30.53070820000005],[114.39377700000011,30.53066590000003],[114.39365300000009,30.53074470000007],[114.39347240000006,30.53073440000003],[114.3934144000001,30.530731100000025],[114.39279920000001,30.530695700000024],[114.39277960000004,30.53099610000004]]]},"properties":{"FID":72,"OBJECTID":80,"highway":"residential","building":" ","natural":" ","waterway":" ","amenity":" ","landuse":" ","place":" ","railway":" ","boundary":" ","power":" ","leisure":" ","man_made":" ","shop":" ","tourism":" ","route":" ","historic":" ","aeroway":" ","aerialway":" ","barrier":" ","military":" ","geological":" ","OSMID":"283732266","osmuser":"lgt945","osmuid":2088668,"osmvisible":"true","osmversion":2,"osmchanges":22499034,"osmtimesta":1400803200000,"osmSupport":"no","SHAPE_Leng":0.00170976977318,"length":196.641613411}},{"type":"Feature","geometry":{"type":"LineString","coordinates":[[[114.39347240000006,30.53073440000003],[114.39344330000006,30.531007700000032]]]},"properties":{"FID":73,"OBJECTID":81,"highway":"residential","building":" ","natural":" ","waterway":" ","amenity":" ","landuse":" ","place":" ","railway":" ","boundary":" ","power":" ","leisure":" ","man_made":" ","shop":" ","tourism":" ","route":" ","historic":" ","aeroway":" ","aerialway":" ","barrier":" ","military":" ","geological":" ","OSMID":"283736910","osmuser":"lgt945","osmuid":2088668,"osmvisible":"true","osmversion":1,"osmchanges":22499428,"osmtimesta":1400803200000,"osmSupport":"no","SHAPE_Leng":0.000274844865337,"length":35.4688626234}},{"type":"Feature","geometry":{"type":"LineString","coordinates":[[[114.39245930000004,30.531015600000046],[114.39272530000005,30.531006700000034],[114.39277960000004,30.53099610000004],[114.39289610000003,30.53097340000005],[114.39344330000006,30.531007700000032],[114.39415280000003,30.531052100000068]]]},"properties":{"FID":74,"OBJECTID":82,"highway":"residential","building":" ","natural":" ","waterway":" ","amenity":" ","landuse":" ","place":" ","railway":" ","boundary":" ","power":" ","leisure":" ","man_made":" ","shop":" ","tourism":" ","route":" ","historic":" ","aeroway":" ","aerialway":" ","barrier":" ","military":" ","geological":" ","OSMID":"282496091","osmuser":"lgt945","osmuid":2088668,"osmvisible":"true","osmversion":3,"osmchanges":22499428,"osmtimesta":1400803200000,"osmSupport":"no","SHAPE_Leng":0.00169932659949,"length":189.392112729}},{"type":"Feature","geometry":{"type":"LineString","coordinates":[[[114.39155970000002,30.530951900000048],[114.39146890000006,30.53094740000006],[114.3914694,30.531386800000064],[114.39145900000005,30.53173220000008],[114.39211480000006,30.53170380000006],[114.39250040000002,30.531687100000056],[114.3933608000001,30.531641300000047],[114.39339690000008,30.531639400000074],[114.39410360000011,30.531644700000072]]]},"properties":{"FID":75,"OBJECTID":83,"highway":"residential","building":" ","natural":" ","waterway":" ","amenity":" ","landuse":" ","place":" ","railway":" ","boundary":" ","power":" ","leisure":" ","man_made":" ","shop":" ","tourism":" ","route":" ","historic":" ","aeroway":" ","aerialway":" ","barrier":" ","military":" ","geological":" ","OSMID":"282496093","osmuser":"lgt945","osmuid":2088668,"osmvisible":"true","osmversion":4,"osmchanges":22499602,"osmtimesta":1400803200000,"osmSupport":"no","SHAPE_Leng":0.00352273234696,"length":406.300852486}},{"type":"Feature","geometry":{"type":"LineString","coordinates":[[[114.3933608000001,30.531641300000047],[114.39344330000006,30.531007700000032]]]},"properties":{"FID":76,"OBJECTID":84,"highway":"footway","building":" ","natural":" ","waterway":" ","amenity":" ","landuse":" ","place":" ","railway":" ","boundary":" ","power":" ","leisure":" ","man_made":" ","shop":" ","tourism":" ","route":" ","historic":" ","aeroway":" ","aerialway":" ","barrier":" ","military":" ","geological":" ","OSMID":"283739280","osmuser":"lgt945","osmuid":2088668,"osmvisible":"true","osmversion":1,"osmchanges":22499767,"osmtimesta":1400803200000,"osmSupport":"no","SHAPE_Leng":0.000638948519063,"length":82.3986979873}},{"type":"Feature","geometry":{"type":"LineString","coordinates":[[[114.3942406000001,30.529994400000078],[114.3938002000001,30.529954300000043]]]},"properties":{"FID":77,"OBJECTID":85,"highway":"steps","building":" ","natural":" ","waterway":" ","amenity":" ","landuse":" ","place":" ","railway":" ","boundary":" ","power":" ","leisure":" ","man_made":" ","shop":" ","tourism":" ","route":" ","historic":" ","aeroway":" ","aerialway":" ","barrier":" ","military":" ","geological":" ","OSMID":"283739281","osmuser":"lgt945","osmuid":2088668,"osmvisible":"true","osmversion":1,"osmchanges":22499767,"osmtimesta":1400803200000,"osmSupport":"no","SHAPE_Leng":0.000442221856091,"length":49.2982539404}},{"type":"Feature","geometry":{"type":"LineString","coordinates":[[[114.39385240000001,30.529610500000047],[114.3938002000001,30.529954300000043],[114.39373590000002,30.529983600000037],[114.39364050000006,30.530027000000075],[114.39356500000008,30.530385300000034],[114.39343410000004,30.53039460000008],[114.39343560000009,30.53055960000006]]]},"properties":{"FID":78,"OBJECTID":86,"highway":"residential","building":" ","natural":" ","waterway":" ","amenity":" ","landuse":" ","place":" ","railway":" ","boundary":" ","power":" ","leisure":" ","man_made":" ","shop":" ","tourism":" ","route":" ","historic":" ","aeroway":" ","aerialway":" ","barrier":" ","military":" ","geological":" ","OSMID":"283739282","osmuser":"lgt945","osmuid":2088668,"osmvisible":"true","osmversion":1,"osmchanges":22499767,"osmtimesta":1400803200000,"osmSupport":"no","SHAPE_Leng":0.00118561423894,"length":147.925545113}},{"type":"Feature","geometry":{"type":"LineString","coordinates":[[[114.39371390000008,30.530300000000068],[114.39373590000002,30.529983600000037]]]},"properties":{"FID":79,"OBJECTID":87,"highway":"steps","building":" ","natural":" ","waterway":" ","amenity":" ","landuse":" ","place":" ","railway":" ","boundary":" ","power":" ","leisure":" ","man_made":" ","shop":" ","tourism":" ","route":" ","historic":" ","aeroway":" ","aerialway":" ","barrier":" ","military":" ","geological":" ","OSMID":"283739283","osmuser":"lgt945","osmuid":2088668,"osmvisible":"true","osmversion":1,"osmchanges":22499767,"osmtimesta":1400803200000,"osmSupport":"no","SHAPE_Leng":0.000317163932403,"length":40.9637298978}},{"type":"Feature","geometry":{"type":"LineString","coordinates":[[[114.39481640000008,30.53142950000006],[114.3958894000001,30.531502800000055]]]},"properties":{"FID":80,"OBJECTID":88,"highway":"residential","building":" ","natural":" ","waterway":" ","amenity":" ","landuse":" ","place":" ","railway":" ","boundary":" ","power":" ","leisure":" ","man_made":" ","shop":" ","tourism":" ","route":" ","historic":" ","aeroway":" ","aerialway":" ","barrier":" ","military":" ","geological":" ","OSMID":"283739284","osmuser":"lgt945","osmuid":2088668,"osmvisible":"true","osmversion":1,"osmchanges":22499767,"osmtimesta":1400803200000,"osmSupport":"no","SHAPE_Leng":0.00107550076245,"length":119.820880322}},{"type":"Feature","geometry":{"type":"LineString","coordinates":[[[114.3958894000001,30.531502800000055],[114.39600930000006,30.531763700000056],[114.39662730000009,30.53176890000003]]]},"properties":{"FID":81,"OBJECTID":89,"highway":"residential","building":" ","natural":" ","waterway":" ","amenity":" ","landuse":" ","place":" ","railway":" ","boundary":" ","power":" ","leisure":" ","man_made":" ","shop":" ","tourism":" ","route":" ","historic":" ","aeroway":" ","aerialway":" ","barrier":" ","military":" ","geological":" ","OSMID":"283739285","osmuser":"lgt945","osmuid":2088668,"osmvisible":"true","osmversion":1,"osmchanges":22499767,"osmtimesta":1400803200000,"osmSupport":"no","SHAPE_Leng":0.000905153936859,"length":105.062685252}},{"type":"Feature","geometry":{"type":"LineString","coordinates":[[[114.39583760000005,30.531789700000047],[114.39600930000006,30.531763700000056]]]},"properties":{"FID":82,"OBJECTID":90,"highway":"residential","building":" ","natural":" ","waterway":" ","amenity":" ","landuse":" ","place":" ","railway":" ","boundary":" ","power":" ","leisure":" ","man_made":" ","shop":" ","tourism":" ","route":" ","historic":" ","aeroway":" ","aerialway":" ","barrier":" ","military":" ","geological":" ","OSMID":"283739286","osmuser":"lgt945","osmuid":2088668,"osmvisible":"true","osmversion":1,"osmchanges":22499767,"osmtimesta":1400803200000,"osmSupport":"no","SHAPE_Leng":0.000173657392595,"length":19.4066751765}},{"type":"Feature","geometry":{"type":"LineString","coordinates":[[[114.3960886000001,30.53189320000007],[114.39615770000012,30.531956300000047]]]},"properties":{"FID":83,"OBJECTID":91,"highway":"steps","building":" ","natural":" ","waterway":" ","amenity":" ","landuse":" ","place":" ","railway":" ","boundary":" ","power":" ","leisure":" ","man_made":" ","shop":" ","tourism":" ","route":" ","historic":" ","aeroway":" ","aerialway":" ","barrier":" ","military":" ","geological":" ","OSMID":"283739287","osmuser":"lgt945","osmuid":2088668,"osmvisible":"true","osmversion":1,"osmchanges":22499767,"osmtimesta":1400803200000,"osmSupport":"no","SHAPE_Leng":0.000093575744719,"length":11.2104083862}},{"type":"Feature","geometry":{"type":"LineString","coordinates":[[[114.3960886000001,30.53189320000007],[114.39600930000006,30.531763700000056]]]},"properties":{"FID":84,"OBJECTID":92,"highway":"residential","building":" ","natural":" ","waterway":" ","amenity":" ","landuse":" ","place":" ","railway":" ","boundary":" ","power":" ","leisure":" ","man_made":" ","shop":" ","tourism":" ","route":" ","historic":" ","aeroway":" ","aerialway":" ","barrier":" ","military":" ","geological":" ","OSMID":"283739288","osmuser":"lgt945","osmuid":2088668,"osmvisible":"true","osmversion":1,"osmchanges":22499767,"osmtimesta":1400803200000,"osmSupport":"no","SHAPE_Leng":0.000151851045468,"length":18.9218179959}},{"type":"Feature","geometry":{"type":"LineString","coordinates":[[[114.39615770000012,30.531956300000047],[114.39626290000001,30.532047100000057],[114.39621160000002,30.532137000000034],[114.39623640000002,30.53222850000003],[114.39628770000002,30.53227880000003],[114.39639740000007,30.532280300000025],[114.39650360000007,30.532260500000064]]]},"properties":{"FID":85,"OBJECTID":93,"highway":"residential","building":" ","natural":" ","waterway":" ","amenity":" ","landuse":" ","place":" ","railway":" ","boundary":" ","power":" ","leisure":" ","man_made":" ","shop":" ","tourism":" ","route":" ","historic":" ","aeroway":" ","aerialway":" ","barrier":" ","military":" ","geological":" ","OSMID":"283739289","osmuser":"lgt945","osmuid":2088668,"osmvisible":"true","osmversion":1,"osmchanges":22499767,"osmtimesta":1400803200000,"osmSupport":"no","SHAPE_Leng":0.000626860573211,"length":74.630234678}},{"type":"Feature","geometry":{"type":"LineString","coordinates":[[[114.39507540000011,30.529321800000048],[114.39499380000007,30.529160700000034],[114.39416740000001,30.529025000000047],[114.39322600000003,30.529137800000058],[114.3927245000001,30.529148900000052],[114.39223880000009,30.52932990000005],[114.39175780000005,30.529869000000076],[114.3913328000001,30.530770000000075],[114.39080980000006,30.53168720000008],[114.39033430000006,30.532471000000044],[114.3899239000001,30.53282450000006],[114.38976830000001,30.53306710000004],[114.38983270000006,30.53310870000007],[114.39028870000004,30.533097100000077],[114.39035290000004,30.533255800000063]]]},"properties":{"FID":86,"OBJECTID":94,"highway":"track","building":" ","natural":" ","waterway":" ","amenity":" ","landuse":" ","place":" ","railway":" ","boundary":" ","power":" ","leisure":" ","man_made":" ","shop":" ","tourism":" ","route":" ","historic":" ","aeroway":" ","aerialway":" ","barrier":" ","military":" ","geological":" ","OSMID":"283739290","osmuser":"lgt945","osmuid":2088668,"osmvisible":"true","osmversion":1,"osmchanges":22499767,"osmtimesta":1400803200000,"osmSupport":"no","SHAPE_Leng":0.00821130166627,"length":978.735256623}},{"type":"Feature","geometry":{"type":"LineString","coordinates":[[[114.3934144000001,30.530731100000025],[114.39343560000009,30.53055960000006]]]},"properties":{"FID":87,"OBJECTID":95,"highway":"steps","building":" ","natural":" ","waterway":" ","amenity":" ","landuse":" ","place":" ","railway":" ","boundary":" ","power":" ","leisure":" ","man_made":" ","shop":" ","tourism":" ","route":" ","historic":" ","aeroway":" ","aerialway":" ","barrier":" ","military":" ","geological":" ","OSMID":"283732361","osmuser":"lgt945","osmuid":2088668,"osmvisible":"true","osmversion":2,"osmchanges":22499767,"osmtimesta":1400803200000,"osmSupport":"no","SHAPE_Leng":0.000172805352891,"length":22.289476851}},{"type":"Feature","geometry":{"type":"LineString","coordinates":[[[114.39694770000006,30.528751700000043],[114.3959473000001,30.529054700000074],[114.39507540000011,30.529321800000048],[114.39424550000001,30.529935100000046],[114.3942406000001,30.529994400000078],[114.39421190000007,30.530340400000057],[114.3941814000001,30.53070820000005],[114.39417200000003,30.530820900000037],[114.39415280000003,30.531052100000068],[114.39410360000011,30.531644700000072]]]},"properties":{"FID":88,"OBJECTID":96,"highway":"residential","building":" ","natural":" ","waterway":" ","amenity":" ","landuse":" ","place":" ","railway":" ","boundary":" ","power":" ","leisure":" ","man_made":" ","shop":" ","tourism":" ","route":" ","historic":" ","aeroway":" ","aerialway":" ","barrier":" ","military":" ","geological":" ","OSMID":"282496083","osmuser":"lgt945","osmuid":2088668,"osmvisible":"true","osmversion":3,"osmchanges":22499767,"osmtimesta":1400803200000,"osmSupport":"no","SHAPE_Leng":0.00470457891774,"length":564.296353048}},{"type":"Feature","geometry":{"type":"LineString","coordinates":[[[114.39424550000001,30.529935100000046],[114.39404820000004,30.529909100000054],[114.39385240000001,30.529610500000047],[114.3937800000001,30.529500100000064],[114.39376520000008,30.52927600000004],[114.39362710000012,30.529209000000037],[114.39311480000003,30.529227500000047]]]},"properties":{"FID":89,"OBJECTID":97,"highway":"residential","building":" ","natural":" ","waterway":" ","amenity":" ","landuse":" ","place":" ","railway":" ","boundary":" ","power":" ","leisure":" ","man_made":" ","shop":" ","tourism":" ","route":" ","historic":" ","aeroway":" ","aerialway":" ","barrier":" ","military":" ","geological":" ","OSMID":"283735722","osmuser":"lgt945","osmuid":2088668,"osmvisible":"true","osmversion":2,"osmchanges":22499767,"osmtimesta":1400803200000,"osmSupport":"no","SHAPE_Leng":0.00157881579786,"length":186.657062066}},{"type":"Feature","geometry":{"type":"LineString","coordinates":[[[114.39486870000007,30.530864800000074],[114.39481640000008,30.53142950000006],[114.3947912000001,30.53170220000004]]]},"properties":{"FID":90,"OBJECTID":98,"highway":"residential","building":" ","natural":" ","waterway":" ","amenity":" ","landuse":" ","place":" ","railway":" ","boundary":" ","power":" ","leisure":" ","man_made":" ","shop":" ","tourism":" ","route":" ","historic":" ","aeroway":" ","aerialway":" ","barrier":" ","military":" ","geological":" ","OSMID":"282496089","osmuser":"lgt945","osmuid":2088668,"osmvisible":"true","osmversion":2,"osmchanges":22499767,"osmtimesta":1400803200000,"osmSupport":"no","SHAPE_Leng":0.000840978606409,"length":108.567314729}},{"type":"Feature","geometry":{"type":"LineString","coordinates":[[[114.39145900000005,30.53173220000008],[114.39130240000009,30.53177110000007],[114.39130120000004,30.532286300000067],[114.3913007000001,30.532489000000055],[114.39084590000004,30.53255610000008],[114.39073790000009,30.532586500000036]]]},"properties":{"FID":91,"OBJECTID":99,"highway":"residential","building":" ","natural":" ","waterway":" ","amenity":" ","landuse":" ","place":" ","railway":" ","boundary":" ","power":" ","leisure":" ","man_made":" ","shop":" ","tourism":" ","route":" ","historic":" ","aeroway":" ","aerialway":" ","barrier":" ","military":" ","geological":" ","OSMID":"283738097","osmuser":"lgt945","osmuid":2088668,"osmvisible":"true","osmversion":1,"osmchanges":22499602,"osmtimesta":1400803200000,"osmSupport":"no","SHAPE_Leng":0.00145118134937,"length":174.937749361}},{"type":"Feature","geometry":{"type":"LineString","coordinates":[[[114.39084590000004,30.53255610000008],[114.39084760000003,30.532306100000028],[114.39130120000004,30.532286300000067]]]},"properties":{"FID":92,"OBJECTID":100,"highway":"residential","building":" ","natural":" ","waterway":" ","amenity":" ","landuse":" ","place":" ","railway":" ","boundary":" ","power":" ","leisure":" ","man_made":" ","shop":" ","tourism":" ","route":" ","historic":" ","aeroway":" ","aerialway":" ","barrier":" ","military":" ","geological":" ","OSMID":"283738099","osmuser":"lgt945","osmuid":2088668,"osmvisible":"true","osmversion":1,"osmchanges":22499602,"osmtimesta":1400803200000,"osmSupport":"no","SHAPE_Leng":0.000704037717199,"length":82.8697825042}},{"type":"Feature","geometry":{"type":"LineString","coordinates":[[[114.39250040000002,30.531687100000056],[114.39256650000004,30.53206270000004],[114.39330900000004,30.532012500000064],[114.3933608000001,30.531641300000047]]]},"properties":{"FID":93,"OBJECTID":101,"highway":"residential","building":" ","natural":" ","waterway":" ","amenity":" ","landuse":" ","place":" ","railway":" ","boundary":" ","power":" ","leisure":" ","man_made":" ","shop":" ","tourism":" ","route":" ","historic":" ","aeroway":" ","aerialway":" ","barrier":" ","military":" ","geological":" ","OSMID":"283738100","osmuser":"lgt945","osmuid":2088668,"osmvisible":"true","osmversion":1,"osmchanges":22499602,"osmtimesta":1400803200000,"osmSupport":"no","SHAPE_Leng":0.00150036387099,"length":180.324374491}},{"type":"Feature","geometry":{"type":"LineString","coordinates":[[[114.39205940000011,30.52135400000003],[114.3920280000001,30.520546800000034]]]},"properties":{"FID":94,"OBJECTID":102,"highway":"residential","building":" ","natural":" ","waterway":" ","amenity":" ","landuse":" ","place":" ","railway":" ","boundary":" ","power":" ","leisure":" ","man_made":" ","shop":" ","tourism":" ","route":" ","historic":" ","aeroway":" ","aerialway":" ","barrier":" ","military":" ","geological":" ","OSMID":"283739794","osmuser":"lgt945","osmuid":2088668,"osmvisible":"true","osmversion":1,"osmchanges":22499850,"osmtimesta":1400803200000,"osmSupport":"no","SHAPE_Leng":0.000807810497577,"length":104.368456122}},{"type":"Feature","geometry":{"type":"LineString","coordinates":[[[114.39255550000007,30.525433200000066],[114.39255790000004,30.52517720000003],[114.39264180000009,30.525179600000058],[114.39264990000004,30.52510490000003],[114.39266610000004,30.525104600000077],[114.3927609000001,30.525102600000025],[114.39276630000006,30.525028000000077],[114.39284750000002,30.525028000000077],[114.39284600000008,30.52474630000006]]]},"properties":{"FID":95,"OBJECTID":103,"highway":"footway","building":" ","natural":" ","waterway":" ","amenity":" ","landuse":" ","place":" ","railway":" ","boundary":" ","power":" ","leisure":" ","man_made":" ","shop":" ","tourism":" ","route":" ","historic":" ","aeroway":" ","aerialway":" ","barrier":" ","military":" ","geological":" ","OSMID":"283729605","osmuser":"lgt945","osmuid":2088668,"osmvisible":"true","osmversion":2,"osmchanges":22499850,"osmtimesta":1400803200000,"osmSupport":"no","SHAPE_Leng":0.000963806495502,"length":119.587165302}},{"type":"Feature","geometry":{"type":"LineString","coordinates":[[[114.39993590000006,30.52090620000007],[114.39993900000002,30.520024400000068]]]},"properties":{"FID":96,"OBJECTID":104,"highway":"residential","building":" ","natural":" ","waterway":" ","amenity":" ","landuse":" ","place":" ","railway":" ","boundary":" ","power":" ","leisure":" ","man_made":" ","shop":" ","tourism":" ","route":" ","historic":" ","aeroway":" ","aerialway":" ","barrier":" ","military":" ","geological":" ","OSMID":"283999842","osmuser":"Gao xioix","osmuid":1761629,"osmvisible":"true","osmversion":1,"osmchanges":22523973,"osmtimesta":1400889600000,"osmSupport":"no","SHAPE_Leng":0.000881805449066,"length":113.949997797}},{"type":"Feature","geometry":{"type":"LineString","coordinates":[[[114.39993900000002,30.520024400000068],[114.40044970000008,30.520017100000075],[114.40054550000002,30.520087500000045],[114.40069960000005,30.520083500000055]]]},"properties":{"FID":97,"OBJECTID":105,"highway":"residential","building":" ","natural":" ","waterway":" ","amenity":" ","landuse":" ","place":" ","railway":" ","boundary":" ","power":" ","leisure":" ","man_made":" ","shop":" ","tourism":" ","route":" ","historic":" ","aeroway":" ","aerialway":" ","barrier":" ","military":" ","geological":" ","OSMID":"283999844","osmuser":"Gao xioix","osmuid":1761629,"osmvisible":"true","osmversion":1,"osmchanges":22523973,"osmtimesta":1400889600000,"osmSupport":"no","SHAPE_Leng":0.000783789735805,"length":88.0383213191}},{"type":"Feature","geometry":{"type":"LineString","coordinates":[[[114.39993900000002,30.520024400000068],[114.3998501000001,30.519917500000076],[114.39961850000009,30.51963900000004],[114.39951570000005,30.519673200000057],[114.39940370000011,30.519826100000046],[114.39942230000008,30.519908500000042],[114.3998501000001,30.519917500000076]]]},"properties":{"FID":98,"OBJECTID":106,"highway":"residential","building":" ","natural":" ","waterway":" ","amenity":" ","landuse":" ","place":" ","railway":" ","boundary":" ","power":" ","leisure":" ","man_made":" ","shop":" ","tourism":" ","route":" ","historic":" ","aeroway":" ","aerialway":" ","barrier":" ","military":" ","geological":" ","OSMID":"283999845","osmuser":"Gao xioix","osmuid":1761629,"osmvisible":"true","osmversion":1,"osmchanges":22523973,"osmtimesta":1400889600000,"osmSupport":"no","SHAPE_Leng":0.00131149142664,"length":155.377844899}},{"type":"Feature","geometry":{"type":"LineString","coordinates":[[[114.39869130000011,30.519461600000056],[114.39951380000002,30.519453800000065],[114.4003550000001,30.519445700000063]]]},"properties":{"FID":99,"OBJECTID":107,"highway":"residential","building":" ","natural":" ","waterway":" ","amenity":" ","landuse":" ","place":" ","railway":" ","boundary":" ","power":" ","leisure":" ","man_made":" ","shop":" ","tourism":" ","route":" ","historic":" ","aeroway":" ","aerialway":" ","barrier":" ","military":" ","geological":" ","OSMID":"283999847","osmuser":"Gao xioix","osmuid":1761629,"osmvisible":"true","osmversion":1,"osmchanges":22523973,"osmtimesta":1400889600000,"osmSupport":"no","SHAPE_Leng":0.00166377598092,"length":185.213634222}},{"type":"Feature","geometry":{"type":"LineString","coordinates":[[[114.39951380000002,30.519453800000065],[114.3995235000001,30.519151100000045],[114.39953250000008,30.518872200000033],[114.39954160000002,30.518585400000063]]]},"properties":{"FID":100,"OBJECTID":108,"highway":"residential","building":" ","natural":" ","waterway":" ","amenity":" ","landuse":" ","place":" ","railway":" ","boundary":" ","power":" ","leisure":" ","man_made":" ","shop":" ","tourism":" ","route":" ","historic":" ","aeroway":" ","aerialway":" ","barrier":" ","military":" ","geological":" ","OSMID":"283999848","osmuser":"Gao xioix","osmuid":1761629,"osmvisible":"true","osmversion":1,"osmchanges":22523973,"osmtimesta":1400889600000,"osmSupport":"no","SHAPE_Leng":0.000868844886163,"length":112.25887446}},{"type":"Feature","geometry":{"type":"LineString","coordinates":[[[114.39868200000001,30.518872100000067],[114.39953250000008,30.518872200000033],[114.40022560000011,30.518880000000024]]]},"properties":{"FID":101,"OBJECTID":109,"highway":"residential","building":" ","natural":" ","waterway":" ","amenity":" ","landuse":" ","place":" ","railway":" ","boundary":" ","power":" ","leisure":" ","man_made":" ","shop":" ","tourism":" ","route":" ","historic":" ","aeroway":" ","aerialway":" ","barrier":" ","military":" ","geological":" ","OSMID":"283999850","osmuser":"Gao xioix","osmuid":1761629,"osmvisible":"true","osmversion":1,"osmchanges":22523973,"osmtimesta":1400889600000,"osmSupport":"no","SHAPE_Leng":0.00154364389436,"length":171.839350183}},{"type":"Feature","geometry":{"type":"LineString","coordinates":[[[114.39866970000003,30.519148100000052],[114.3995235000001,30.519151100000045],[114.4002872000001,30.519149200000072]]]},"properties":{"FID":102,"OBJECTID":110,"highway":"residential","building":" ","natural":" ","waterway":" ","amenity":" ","landuse":" ","place":" ","railway":" ","boundary":" ","power":" ","leisure":" ","man_made":" ","shop":" ","tourism":" ","route":" ","historic":" ","aeroway":" ","aerialway":" ","barrier":" ","military":" ","geological":" ","OSMID":"283999851","osmuser":"Gao xioix","osmuid":1761629,"osmvisible":"true","osmversion":1,"osmchanges":22523973,"osmtimesta":1400889600000,"osmSupport":"no","SHAPE_Leng":0.00161750763409,"length":180.060421495}},{"type":"Feature","geometry":{"type":"LineString","coordinates":[[[114.4018443000001,30.520289200000036],[114.4012732000001,30.520225700000026],[114.40114070000004,30.51992050000007],[114.40052450000007,30.519901900000036],[114.4003550000001,30.519445700000063],[114.4002872000001,30.519149200000072],[114.40022560000011,30.518880000000024],[114.40023180000003,30.518646500000045]]]},"properties":{"FID":103,"OBJECTID":111,"highway":"residential","building":" ","natural":" ","waterway":" ","amenity":" ","landuse":" ","place":" ","railway":" ","boundary":" ","power":" ","leisure":" ","man_made":" ","shop":" ","tourism":" ","route":" ","historic":" ","aeroway":" ","aerialway":" ","barrier":" ","military":" ","geological":" ","OSMID":"283999853","osmuser":"Gao xioix","osmuid":1761629,"osmvisible":"true","osmversion":1,"osmchanges":22523973,"osmtimesta":1400889600000,"osmSupport":"no","SHAPE_Leng":0.00282438542285,"length":341.431081455}},{"type":"Feature","geometry":{"type":"LineString","coordinates":[[[114.39954160000002,30.518585400000063],[114.40023180000003,30.518646500000045],[114.40088750000007,30.518720100000053],[114.4017632,30.518850900000075],[114.40191030000005,30.518877000000032],[114.40200130000005,30.51901380000004],[114.4018443000001,30.520289200000036]]]},"properties":{"FID":104,"OBJECTID":112,"highway":"residential","building":" ","natural":" ","waterway":" ","amenity":" ","landuse":" ","place":" ","railway":" ","boundary":" ","power":" ","leisure":" ","man_made":" ","shop":" ","tourism":" ","route":" ","historic":" ","aeroway":" ","aerialway":" ","barrier":" ","military":" ","geological":" ","OSMID":"283999854","osmuser":"Gao xioix","osmuid":1761629,"osmvisible":"true","osmversion":1,"osmchanges":22523973,"osmtimesta":1400889600000,"osmSupport":"no","SHAPE_Leng":0.00383685828454,"length":452.611225186}},{"type":"Feature","geometry":{"type":"LineString","coordinates":[[[114.39607970000009,30.522870500000067],[114.39614920000008,30.522874100000024]]]},"properties":{"FID":105,"OBJECTID":113,"highway":"footway","building":" ","natural":" ","waterway":" ","amenity":" ","landuse":" ","place":" ","railway":" ","boundary":" ","power":" ","leisure":" ","man_made":" ","shop":" ","tourism":" ","route":" ","historic":" ","aeroway":" ","aerialway":" ","barrier":" ","military":" ","geological":" ","OSMID":"288196968","osmuser":"刘亚涛","osmuid":1832546,"osmvisible":"true","osmversion":1,"osmchanges":22945692,"osmtimesta":1402790400000,"osmSupport":"no","SHAPE_Leng":0.0000695931749456,"length":7.7506790003}},{"type":"Feature","geometry":{"type":"LineString","coordinates":[[[114.40065450000009,30.52332590000003],[114.40050510000003,30.52357420000004],[114.4002226,30.523819600000024],[114.3999424000001,30.524069000000054],[114.39971820000005,30.524338500000056],[114.39961310000001,30.52474280000007],[114.39950810000005,30.524945900000034],[114.39930260000006,30.52538640000006],[114.39920690000008,30.525688100000025],[114.39914150000004,30.52602600000006],[114.39914380000005,30.52610450000003],[114.39913550000006,30.52624560000004]]]},"properties":{"FID":106,"OBJECTID":114,"highway":"residential","building":" ","natural":" ","waterway":" ","amenity":" ","landuse":" ","place":" ","railway":" ","boundary":" ","power":" ","leisure":" ","man_made":" ","shop":" ","tourism":" ","route":" ","historic":" ","aeroway":" ","aerialway":" ","barrier":" ","military":" ","geological":" ","OSMID":"301934476","osmuser":"CUGiser","osmuid":2303360,"osmvisible":"true","osmversion":1,"osmchanges":25250520,"osmtimesta":1409875200000,"osmSupport":"no","SHAPE_Leng":0.00340267863761,"length":425.217678356}},{"type":"Feature","geometry":{"type":"LineString","coordinates":[[[114.39213770000003,30.52205740000005],[114.39325380000002,30.52205340000006]]]},"properties":{"FID":107,"OBJECTID":115,"highway":" ","building":" ","natural":" ","waterway":" ","amenity":" ","landuse":" ","place":" ","railway":" ","boundary":" ","power":" ","leisure":" ","man_made":"cutline","shop":" ","tourism":" ","route":" ","historic":" ","aeroway":" ","aerialway":" ","barrier":" ","military":" ","geological":" ","OSMID":"301936971","osmuser":"CUGiser","osmuid":2303360,"osmvisible":"true","osmversion":1,"osmchanges":25250828,"osmtimesta":1409875200000,"osmSupport":"no","SHAPE_Leng":0.00111610716778,"length":124.244758931}},{"type":"Feature","geometry":{"type":"LineString","coordinates":[[[114.3933525000001,30.520509600000025],[114.3933518,30.52135930000003]]]},"properties":{"FID":108,"OBJECTID":116,"highway":"residential","building":" ","natural":" ","waterway":" ","amenity":" ","landuse":" ","place":" ","railway":" ","boundary":" ","power":" ","leisure":" ","man_made":" ","shop":" ","tourism":" ","route":" ","historic":" ","aeroway":" ","aerialway":" ","barrier":" ","military":" ","geological":" ","OSMID":"304389407","osmuser":"CUGiser","osmuid":2303360,"osmvisible":"true","osmversion":1,"osmchanges":25581198,"osmtimesta":1411257600000,"osmSupport":"no","SHAPE_Leng":0.00084970028834,"length":109.801951566}},{"type":"Feature","geometry":{"type":"LineString","coordinates":[[[114.40065450000009,30.52332590000003],[114.40072900000007,30.52328220000004],[114.40076120000003,30.52308350000004],[114.40082560000008,30.522940300000073],[114.40098120000005,30.522820100000047],[114.4012226000001,30.52263990000006],[114.40152830000011,30.522487400000045],[114.40191460000005,30.522344100000055],[114.40233840000008,30.52221940000004],[114.40275680000002,30.522103800000025],[114.40312690000007,30.52196980000008],[114.40399850000006,30.521562000000074]]]},"properties":{"FID":109,"OBJECTID":117,"highway":"residential","building":" ","natural":" ","waterway":" ","amenity":" ","landuse":" ","place":" ","railway":" ","boundary":" ","power":" ","leisure":" ","man_made":" ","shop":" ","tourism":" ","route":" ","historic":" ","aeroway":" ","aerialway":" ","barrier":" ","military":" ","geological":" ","OSMID":"304390223","osmuser":"CUGiser","osmuid":2303360,"osmvisible":"true","osmversion":1,"osmchanges":25581548,"osmtimesta":1411257600000,"osmSupport":"no","SHAPE_Leng":0.00392792267481,"length":454.645429923}},{"type":"Feature","geometry":{"type":"LineString","coordinates":[[[114.39670960000001,30.521282100000064],[114.39643960000001,30.521282000000042]]]},"properties":{"FID":110,"OBJECTID":118,"highway":"footway","building":" ","natural":" ","waterway":" ","amenity":" ","landuse":" ","place":" ","railway":" ","boundary":" ","power":" ","leisure":" ","man_made":" ","shop":" ","tourism":" ","route":" ","historic":" ","aeroway":" ","aerialway":" ","barrier":" ","military":" ","geological":" ","OSMID":"304495020","osmuser":"CUGiser","osmuid":2303360,"osmvisible":"true","osmversion":1,"osmchanges":25598715,"osmtimesta":1411344000000,"osmSupport":"no","SHAPE_Leng":0.000270000018519,"length":30.0562652916}},{"type":"Feature","geometry":{"type":"LineString","coordinates":[[[114.39770890000011,30.52149460000004],[114.39758030000007,30.521494500000074],[114.39751090000004,30.521505000000047],[114.39737320000006,30.521507000000042],[114.39733110000009,30.52149090000006]]]},"properties":{"FID":111,"OBJECTID":119,"highway":"footway","building":" ","natural":" ","waterway":" ","amenity":" ","landuse":" ","place":" ","railway":" ","boundary":" ","power":" ","leisure":" ","man_made":" ","shop":" ","tourism":" ","route":" ","historic":" ","aeroway":" ","aerialway":" ","barrier":" ","military":" ","geological":" ","OSMID":"304495396","osmuser":"CUGiser","osmuid":2303360,"osmvisible":"true","osmversion":1,"osmchanges":25598774,"osmtimesta":1411344000000,"osmSupport":"no","SHAPE_Leng":0.000381577872071,"length":42.6179927043}},{"type":"Feature","geometry":{"type":"LineString","coordinates":[[[114.39731250000011,30.52128780000004],[114.39731010000003,30.52133200000003],[114.39733810000007,30.521420500000033],[114.39733110000009,30.52149090000006],[114.39727980000009,30.521525100000076],[114.39721670000006,30.52154520000005],[114.39716070000009,30.52152710000007],[114.39709060000007,30.521511000000032],[114.3970369000001,30.521496900000045],[114.39698790000011,30.52150290000003],[114.39690500000006,30.521501000000058],[114.39683790000004,30.52149220000007],[114.39677290000009,30.521467700000073],[114.39675660000012,30.52145900000005]]]},"properties":{"FID":112,"OBJECTID":120,"highway":"footway","building":" ","natural":" ","waterway":" ","amenity":" ","landuse":" ","place":" ","railway":" ","boundary":" ","power":" ","leisure":" ","man_made":" ","shop":" ","tourism":" ","route":" ","historic":" ","aeroway":" ","aerialway":" ","barrier":" ","military":" ","geological":" ","OSMID":"304495397","osmuser":"CUGiser","osmuid":2303360,"osmvisible":"true","osmversion":1,"osmchanges":25598774,"osmtimesta":1411344000000,"osmSupport":"no","SHAPE_Leng":0.000809915603837,"length":94.7256009144}},{"type":"Feature","geometry":{"type":"LineString","coordinates":[[[114.39676440000005,30.52135750000008],[114.39675660000012,30.52145900000005],[114.39670420000004,30.521479800000066],[114.3965591000001,30.521540800000025],[114.39649180000004,30.521540800000025],[114.39637860000005,30.521519400000045],[114.3963361000001,30.52149810000003],[114.39632940000001,30.52142290000006]]]},"properties":{"FID":113,"OBJECTID":121,"highway":"footway","building":" ","natural":" ","waterway":" ","amenity":" ","landuse":" ","place":" ","railway":" ","boundary":" ","power":" ","leisure":" ","man_made":" ","shop":" ","tourism":" ","route":" ","historic":" ","aeroway":" ","aerialway":" ","barrier":" ","military":" ","geological":" ","OSMID":"304495398","osmuser":"CUGiser","osmuid":2303360,"osmvisible":"true","osmversion":1,"osmchanges":25598774,"osmtimesta":1411344000000,"osmSupport":"no","SHAPE_Leng":0.000621119099382,"length":73.1538298448}},{"type":"Feature","geometry":{"type":"LineString","coordinates":[[[114.39631110000005,30.520931000000076],[114.39630920000002,30.521056900000076],[114.39630780000005,30.521149500000035]]]},"properties":{"FID":114,"OBJECTID":122,"highway":"footway","building":" ","natural":" ","waterway":" ","amenity":" ","landuse":" ","place":" ","railway":" ","boundary":" ","power":" ","leisure":" ","man_made":" ","shop":" ","tourism":" ","route":" ","historic":" ","aeroway":" ","aerialway":" ","barrier":" ","military":" ","geological":" ","OSMID":"304495399","osmuser":"CUGiser","osmuid":2303360,"osmvisible":"true","osmversion":1,"osmchanges":25598774,"osmtimesta":1411344000000,"osmSupport":"no","SHAPE_Leng":0.000218524918468,"length":28.2379391965}},{"type":"Feature","geometry":{"type":"LineString","coordinates":[[[114.39630920000002,30.521056900000076],[114.3964181,30.52104490000005],[114.39649520000012,30.52106100000003],[114.39649750000001,30.52106100000003],[114.39660730000003,30.52108110000006],[114.39674500000001,30.521127300000046],[114.39676840000004,30.521143400000028],[114.39676610000004,30.521216200000026]]]},"properties":{"FID":115,"OBJECTID":123,"highway":"footway","building":" ","natural":" ","waterway":" ","amenity":" ","landuse":" ","place":" ","railway":" ","boundary":" ","power":" ","leisure":" ","man_made":" ","shop":" ","tourism":" ","route":" ","historic":" ","aeroway":" ","aerialway":" ","barrier":" ","military":" ","geological":" ","OSMID":"304495400","osmuser":"CUGiser","osmuid":2303360,"osmvisible":"true","osmversion":1,"osmchanges":25598774,"osmtimesta":1411344000000,"osmSupport":"no","SHAPE_Leng":0.000548730530648,"length":62.9996962113}},{"type":"Feature","geometry":{"type":"LineString","coordinates":[[[114.39676840000004,30.521143400000028],[114.39682210000001,30.521127300000046],[114.39688510000008,30.521113300000025],[114.39697150000006,30.521091100000035],[114.39713960000006,30.521073000000058],[114.3972424000001,30.52104890000004],[114.39730310000004,30.521059000000037],[114.39736380000011,30.52110520000008]]]},"properties":{"FID":116,"OBJECTID":124,"highway":"footway","building":" ","natural":" ","waterway":" ","amenity":" ","landuse":" ","place":" ","railway":" ","boundary":" ","power":" ","leisure":" ","man_made":" ","shop":" ","tourism":" ","route":" ","historic":" ","aeroway":" ","aerialway":" ","barrier":" ","military":" ","geological":" ","OSMID":"304495401","osmuser":"CUGiser","osmuid":2303360,"osmvisible":"true","osmversion":1,"osmchanges":25598774,"osmtimesta":1411344000000,"osmSupport":"no","SHAPE_Leng":0.000622280150476,"length":70.2259784317}},{"type":"Feature","geometry":{"type":"LineString","coordinates":[[[114.39736380000011,30.52110520000008],[114.39743850000002,30.521091100000035],[114.39751320000005,30.52107710000007],[114.39759730000003,30.52106100000003],[114.39771180000002,30.52106310000005]]]},"properties":{"FID":117,"OBJECTID":125,"highway":"footway","building":" ","natural":" ","waterway":" ","amenity":" ","landuse":" ","place":" ","railway":" ","boundary":" ","power":" ","leisure":" ","man_made":" ","shop":" ","tourism":" ","route":" ","historic":" ","aeroway":" ","aerialway":" ","barrier":" ","military":" ","geological":" ","OSMID":"304495402","osmuser":"CUGiser","osmuid":2303360,"osmvisible":"true","osmversion":1,"osmchanges":25598774,"osmtimesta":1411344000000,"osmSupport":"no","SHAPE_Leng":0.000352166139907,"length":39.3622676657}},{"type":"Feature","geometry":{"type":"LineString","coordinates":[[[114.39736380000011,30.52110520000008],[114.39733580000006,30.521137400000043],[114.39733810000007,30.521169600000064],[114.3973218000001,30.52121180000006],[114.39731250000011,30.52128780000004]]]},"properties":{"FID":118,"OBJECTID":126,"highway":"footway","building":" ","natural":" ","waterway":" ","amenity":" ","landuse":" ","place":" ","railway":" ","boundary":" ","power":" ","leisure":" ","man_made":" ","shop":" ","tourism":" ","route":" ","historic":" ","aeroway":" ","aerialway":" ","barrier":" ","military":" ","geological":" ","OSMID":"304495403","osmuser":"CUGiser","osmuid":2303360,"osmvisible":"true","osmversion":1,"osmchanges":25598774,"osmtimesta":1411344000000,"osmSupport":"no","SHAPE_Leng":0.000196758828741,"length":24.9906292083}},{"type":"Feature","geometry":{"type":"LineString","coordinates":[[[114.39771030000009,30.521289000000024],[114.39731250000011,30.52128780000004],[114.39693040000009,30.521286600000053]]]},"properties":{"FID":119,"OBJECTID":127,"highway":"footway","building":" ","natural":" ","waterway":" ","amenity":" ","landuse":" ","place":" ","railway":" ","boundary":" ","power":" ","leisure":" ","man_made":" ","shop":" ","tourism":" ","route":" ","historic":" ","aeroway":" ","aerialway":" ","barrier":" ","military":" ","geological":" ","OSMID":"304495019","osmuser":"CUGiser","osmuid":2303360,"osmvisible":"true","osmversion":2,"osmchanges":25598774,"osmtimesta":1411344000000,"osmSupport":"no","SHAPE_Leng":0.000779903694267,"length":86.8186250454}},{"type":"Feature","geometry":{"type":"LineString","coordinates":[[[114.39902030000007,30.517125600000043],[114.39893960000006,30.51751150000007],[114.39905790000012,30.518313100000057],[114.40080230000001,30.518594000000064],[114.40078730000005,30.518677800000034],[114.40150690000007,30.518777700000044],[114.40213700000004,30.518900200000076],[114.40185270000006,30.52079020000008],[114.40191890000006,30.52196710000004],[114.40302750000001,30.52194090000006],[114.40318550000006,30.52242160000003]]]},"properties":{"FID":120,"OBJECTID":128,"highway":" ","building":" ","natural":" ","waterway":" ","amenity":" ","landuse":" ","place":" ","railway":" ","boundary":" ","power":" ","leisure":" ","man_made":" ","shop":" ","tourism":" ","route":" ","historic":" ","aeroway":" ","aerialway":" ","barrier":"wall","military":" ","geological":" ","OSMID":"110399859","osmuser":"dword1511","osmuid":401110,"osmvisible":"true","osmversion":7,"osmchanges":7975259,"osmtimesta":1303776000000,"osmSupport":"no","SHAPE_Leng":0.00912986604869,"length":5924.52511109}},{"type":"Feature","geometry":{"type":"LineString","coordinates":[[[114.39501596200012,30.517328276000057],[114.3973228000001,30.517349100000047],[114.39892240000006,30.517535200000054],[114.39881570000011,30.518404200000077],[114.40078730000005,30.518677800000034],[114.40150690000007,30.518777700000044],[114.40218060000007,30.518871200000035],[114.40186330000006,30.522156100000075],[114.40330730000005,30.52201800000006],[114.40363700000012,30.52268410000005]]]},"properties":{"FID":121,"OBJECTID":129,"highway":" ","building":" ","natural":" ","waterway":" ","amenity":" ","landuse":" ","place":" ","railway":" ","boundary":"administrative","power":" ","leisure":" ","man_made":" ","shop":" ","tourism":" ","route":" ","historic":" ","aeroway":" ","aerialway":" ","barrier":" ","military":" ","geological":" ","OSMID":"229747087","osmuser":"Gao xioix","osmuid":1761629,"osmvisible":"true","osmversion":3,"osmchanges":22523883,"osmtimesta":1400889600000,"osmSupport":"no","SHAPE_Leng":0.0136840071538,"length":3417.63187251}}]}