{"type":"FeatureCollection","features":[{"type":"Feature","geometry":{"type":"LineString","coordinates":[[[114.39493760000005,30.533158400000048],[114.39591710000002,30.533156500000075],[114.39655820000007,30.53311910000008],[114.3971772000001,30.533040500000027],[114.39781990000006,30.532877000000042],[114.39875760000007,30.53246020000006],[114.39952520000008,30.531927000000053],[114.40048330000002,30.53102830000006],[114.4010015,30.53058980000003],[114.40206280000007,30.52971350000007],[114.40373900000009,30.528085300000043]]]},"properties":{"FID":0,"OBJECTID":6,"highway":"secondary","building":" ","natural":" ","waterway":" ","amenity":" ","landuse":" ","place":" ","railway":" ","boundary":" ","power":" ","leisure":" ","man_made":" ","shop":" ","tourism":" ","route":" ","historic":" ","aeroway":" ","aerialway":" ","barrier":" ","military":" ","geological":" ","OSMID":"169552935","osmuser":"meacon","osmuid":751192,"osmvisible":"true","osmversion":2,"osmchanges":12809385,"osmtimesta":1345507200000,"osmSupport":"no","SHAPE_Leng":0.0105752022961,"length":1235.50268644}},{"type":"Feature","geometry":{"type":"LineString","coordinates":[[[114.38487450000002,30.533394500000043],[114.38759660000005,30.533326400000078],[114.38904430000002,30.533286200000077],[114.39035290000004,30.533255800000063],[114.39040950000003,30.533254500000055],[114.39291630000002,30.53318470000005],[114.39493760000005,30.533158400000048]]]},"properties":{"FID":1,"OBJECTID":7,"highway":"secondary","building":" ","natural":" ","waterway":" ","amenity":" ","landuse":" ","place":" ","railway":" ","boundary":" ","power":" ","leisure":" ","man_made":" ","shop":" ","tourism":" ","route":" ","historic":" ","aeroway":" ","aerialway":" ","barrier":" ","military":" ","geological":" ","OSMID":"169552933","osmuser":"lgt945","osmuid":2088668,"osmvisible":"true","osmversion":2,"osmchanges":22499767,"osmtimesta":1400803200000,"osmSupport":"no","SHAPE_Leng":0.0100660204034,"length":1120.65734072}},{"type":"Feature","geometry":{"type":"LineString","coordinates":[[[114.39532170000007,30.52094560000006],[114.39572320000002,30.52092360000006]]]},"properties":{"FID":2,"OBJECTID":8,"highway":" ","building":" ","natural":" ","waterway":" ","amenity":" ","landuse":" ","place":" ","railway":" ","boundary":" ","power":" ","leisure":" ","man_made":" ","shop":" ","tourism":" ","route":" ","historic":" ","aeroway":" ","aerialway":" ","barrier":" ","military":" ","geological":" ","OSMID":"421056769","osmuser":"vastmanor","osmuid":3584190,"osmvisible":"true","osmversion":1,"osmchanges":39578881,"osmtimesta":1464220800000,"osmSupport":"yes","SHAPE_Leng":0.000402102287934,"length":44.7851006895}}]}